,formatted_address,latitude,longitude,accuracy,google_place_id,type,postcode,input_string,number_of_results,status
0,"Lingkaran Syed Putra, Mid Valley City, 59200 Kuala Lumpur, Wilayah Persekutuan Kuala Lumpur, Malaysia",3.1174073,101.6780545,GEOMETRIC_CENTER,ChIJPbiasY5JzDER-5Fp9VNQTVY,"establishment,point_of_interest,shopping_mall",59200,Midvalley Megamall,1,OK
1,"Berjaya Times Square, Imbi, 55100 Kuala Lumpur, Federal Territory of Kuala Lumpur, Malaysia",3.1421984,101.7105512,ROOFTOP,ChIJQ47BkCg2zDER3BvZuEV9la8,premise,55100,Berjaya Times Square,1,OK
2,"241, Suria KLCC, Kuala Lumpur City Centre, 50088 Kuala Lumpur, Wilayah Persekutuan Kuala Lumpur, Malaysia",3.1577167,101.7121716,GEOMETRIC_CENTER,ChIJH5xmLdE3zDERKa4a_IywVck,"establishment,point_of_interest,shopping_mall",50088,Suria KLCC,1,OK
3,"303, Jln Ampang, Desa Pahlawan, 55000 Kuala Lumpur, Wilayah Persekutuan Kuala Lumpur, Malaysia",3.1602108,101.736936,ROOFTOP,ChIJW2BdmLA3zDERQI0BrKeUURc,"establishment,point_of_interest,shopping_mall",55000,Great Eastern Mall[1],1,OK
4,"1, Jalan Telawi 1, Bangsar, 59100 Kuala Lumpur, Wilayah Persekutuan Kuala Lumpur, Malaysia",3.129626,101.670946,ROOFTOP,ChIJ3frksplJzDER5USO8zLKNs0,"establishment,point_of_interest,shopping_mall",59100,Bangsar Village I & II[2],1,OK
5,"285, Jalan Maarof, Bangsar, 59000 Kuala Lumpur, Wilayah Persekutuan Kuala Lumpur, Malaysia",3.1428401,101.6675173,ROOFTOP,ChIJ7_y5Tq9JzDERVkRzAXei3c8,"establishment,point_of_interest,shopping_mall",59000,Bangsar Shopping Centre[3],1,OK
6,"201, Jalan Tun Sambanthan, Brickfields, 50470 Kuala Lumpur, Wilayah Persekutuan Kuala Lumpur, Malaysia",3.1330712,101.6870347,ROOFTOP,ChIJgakKKSVJzDERjXMeoGqoR98,"establishment,point_of_interest,shopping_mall",50470,NU Sentral[4],1,OK
7,"168, Jln Bukit Bintang, Bukit Bintang, 55100 Kuala Lumpur, Wilayah Persekutuan Kuala Lumpur, Malaysia",3.1488558,101.7132547,ROOFTOP,ChIJm1A1iSw2zDERtJ-nsFBslu0,"establishment,point_of_interest,shopping_mall",55100,Pavilion KL,1,OK
8,"Berjaya Times Square, Imbi, 55100 Kuala Lumpur, Federal Territory of Kuala Lumpur, Malaysia",3.1421984,101.7105512,ROOFTOP,ChIJQ47BkCg2zDER3BvZuEV9la8,premise,55100,Berjaya Times Square[5],1,OK
9,"Jln Bukit Bintang, Bukit Bintang, 55100 Kuala Lumpur, Wilayah Persekutuan Kuala Lumpur, Malaysia",3.1457406,101.7102981,ROOFTOP,ChIJqYGucyk2zDERpJ37kYeZQPM,"establishment,premise",55100,Bukit Bintang Plaza (Under renovation),1,OK
10,"179, Jalan Gading, Bukit Bintang, 55100 Kuala Lumpur, Wilayah Persekutuan Kuala Lumpur, Malaysia",3.1470703,101.712995,ROOFTOP,ChIJg5laCyw2zDERUuHjHTLlnok,"establishment,point_of_interest,shopping_mall",55100,Fahrenheit 88[6],1,OK
11,"Jalan Imbi, Bukit Bintang, 55100 Kuala Lumpur, Wilayah Persekutuan Kuala Lumpur, Malaysia",3.1438109,101.7112198,ROOFTOP,ChIJ2T6f3yg2zDERCa7pS_8xabQ,"establishment,point_of_interest,premise,shopping_mall",55100,Imbi Plaza,1,OK
12,"No. 2, Jalan Gelugor, Pudu, 55200 Kuala Lumpur, Wilayah Persekutuan Kuala Lumpur, Malaysia",3.1367385,101.7078243,ROOFTOP,ChIJdbawVSc2zDERjwW5Qlv7lN4,"establishment,point_of_interest,shopping_mall",55200,Kenanga Wholesale City[7],1,OK
13,,,,,,,,Lot 10[8],0,ZERO_RESULTS
14,"Entertainment Hab BBCC, 2, Jalan Hang Tuah, Bukit Bintang, 55100 Kuala Lumpur, Wilayah Persekutuan Kuala Lumpur, Malaysia",3.1397523,101.7090976,ROOFTOP,ChIJ__8_4Sc2zDERysrmJlI01iE,"establishment,point_of_interest,shopping_mall",55100,Malaysia Grand Bazaar[9],1,OK
15,"2, Jalan Hang Tuah, Bukit Bintang, 55100 Kuala Lumpur, Wilayah Persekutuan Kuala Lumpur, Malaysia",3.140744,101.7081186,ROOFTOP,ChIJYyY0zyY3zDERsEE-PZtSTl8,"establishment,point_of_interest,shopping_mall",55100,Mitsui Shopping Park LaLaport Bukit Bintang City Centre[10],1,OK
16,"7, Jalan Bintang, Bukit Bintang, 55100 Kuala Lumpur, Wilayah Persekutuan Kuala Lumpur, Malaysia",3.1440649,101.7099624,ROOFTOP,ChIJYYacASk2zDERh3Iqf0NTR1g,"establishment,point_of_interest,shopping_mall",55100,Plaza Low Yat[11],1,OK
17,"168, Jln Bukit Bintang, Bukit Bintang, 55100 Kuala Lumpur, Wilayah Persekutuan Kuala Lumpur, Malaysia",3.1488558,101.7132547,ROOFTOP,ChIJm1A1iSw2zDERtJ-nsFBslu0,"establishment,point_of_interest,shopping_mall",55100,Pavilion Kuala Lumpur[12],1,OK
18,"Jln Sultan Ismail, Bukit Bintang, 55100 Kuala Lumpur, Wilayah Persekutuan Kuala Lumpur, Malaysia",3.1451126,101.7114909,GEOMETRIC_CENTER,ChIJw_uZIyk2zDERHksxFNzcHb8,"establishment,point_of_interest,shopping_mall",55100,Sungei Wang Plaza[13],1,OK
19,"Lingkaran TRX, Tun Razak Exchange, 55188 Kuala Lumpur, Wilayah Persekutuan Kuala Lumpur, Malaysia",3.142759,101.7175879,GEOMETRIC_CENTER,ChIJP3e35y82zDERtMlTjdDsXTg,"establishment,point_of_interest,shopping_mall",55188,The Exchange TRX[14] (Opening in 2022)[15],1,OK
20,"181, Jln Bukit Bintang, Bukit Bintang, 55100 Kuala Lumpur, Wilayah Persekutuan Kuala Lumpur, Malaysia",3.1478968,101.7139255,ROOFTOP,ChIJy1W23ys2zDERmNrv5_HwUQg,"establishment,point_of_interest,shopping_mall,store",55100,The Starhill or Starhill Gallery[16],2,OK
21,"Jalan Hang Jebat, City Centre, 50150 Kuala Lumpur, Wilayah Persekutuan Kuala Lumpur, Malaysia",3.1413046,101.7018253,GEOMETRIC_CENTER,ChIJIb9ql_BJzDER62cimj0Uw7Q,"establishment,point_of_interest,shopping_mall",50150,118 Mall[17] (Opening in 2022),1,OK
22,"No.1, Persiaran Jalil 1 Bandar Bukit Jalil, Bukit Jalil, 57000 Kuala Lumpur, Wilayah Persekutuan Kuala Lumpur, Malaysia",3.0541402,101.670016,GEOMETRIC_CENTER,ChIJyeLLY-dKzDEROShjSMmhWZE,"clothing_store,establishment,point_of_interest,shopping_mall,store",57000,Aurora Place Mall[18],1,OK
23,"Pusat Bandar, 2, Persiaran Jalil Utama, Bukit Jalil, 57000 Kuala Lumpur, Wilayah Persekutuan Kuala Lumpur, Malaysia",3.0502474,101.670999,ROOFTOP,ChIJ1WK28udKzDERlczc3oAKZCQ,"establishment,point_of_interest,real_estate_agency,shopping_mall",57000,Pavilion Bukit Jalil[19],1,OK
24,"7, Jalan Bintang, Bukit Bintang, 55100 Kuala Lumpur, Wilayah Persekutuan Kuala Lumpur, Malaysia",3.1440649,101.7099624,ROOFTOP,ChIJYYacASk2zDERh3Iqf0NTR1g,"establishment,point_of_interest,shopping_mall",55100,Inside Low Yat Plaza,1,OK
25,"1-01, 100, Jalan 4/91, Taman Shamelin Perkasa, 56100 Kuala Lumpur, Wilayah Persekutuan Kuala Lumpur, Malaysia",3.1220753,101.7400684,ROOFTOP,ChIJY1Zv3m82zDERcvJ69kHY4iw,"establishment,point_of_interest,shopping_mall",56100,1 Shamelin Shopping Centre[20],1,OK
26,"Maluri, Kuala Lumpur, Federal Territory of Kuala Lumpur, Malaysia",3.13422,101.7277009,APPROXIMATE,ChIJQ9jUDj82zDERM1QtQtwVkX0,"political,sublocality,sublocality_level_1",,�ON Taman Maluri Shopping Centre[21],1,OK
27,"Lingkaran SV, Maluri, 55100 Kuala Lumpur, Wilayah Persekutuan Kuala Lumpur, Malaysia",3.127871400000001,101.7248453,GEOMETRIC_CENTER,ChIJwYo9AhQ2zDERokwJnyvbwhY,"establishment,point_of_interest,shopping_mall",55100,Sunway Velocity Mall[22],1,OK
28,,,,,,,,Viva Home[23],0,ZERO_RESULTS
29,"Level 3, Jalan Manis 6, Taman Bukit Segar, 56100 Kuala Lumpur, Wilayah Persekutuan Kuala Lumpur, Malaysia",3.0905814,101.7421175,ROOFTOP,ChIJm1EIWx01zDERxrth90qvHkQ,"establishment,point_of_interest,shopping_mall",56100,Cheras Leisure Mall[24],1,OK
30,"Jalan 2/142a, Taman Len Seng, 56000 Kuala Lumpur, Wilayah Persekutuan Kuala Lumpur, Malaysia",3.0787772,101.7447049,GEOMETRIC_CENTER,ChIJQyguwK41zDERImQvNoDevks,"establishment,point_of_interest,shopping_mall",56000,Cheras Sentral Mall[25],1,OK
31,"EkoCheras Mall No 693, Batu, 5, Jln Cheras, Taman Mutiara Barat, 56000 Kuala Lumpur, Wilayah Persekutuan Kuala Lumpur, Malaysia",3.0926782,101.7394614,ROOFTOP,ChIJvaM1Vdw1zDERCEBYgTm3xU8,"establishment,point_of_interest,shopping_mall",56000,EkoCheras Mall[26],1,OK
32,"No.6, Jalan Cochrane, Seksyen 90, 55100 Kuala Lumpur, Wilayah Persekutuan Kuala Lumpur, Malaysia",3.1348631,101.7228429,ROOFTOP,ChIJB3uwzD02zDERHQMlA6UmnJU,"establishment,point_of_interest,shopping_mall",55100,MyTOWN Shopping Centre[27],1,OK
33,"8, Jalan Conlay, Kuala Lumpur, 50450 Kuala Lumpur, Wilayah Persekutuan Kuala Lumpur, Malaysia",3.1502299,101.7153463,ROOFTOP,ChIJ0bmF6xg3zDERcVT0Cdt-Fao,"establishment,lodging,point_of_interest",50450,8 Conlay[28] (Opening soon),1,OK
34,"156, Jln Ampang, Kuala Lumpur City Centre, 50450 Kuala Lumpur, Wilayah Persekutuan Kuala Lumpur, Malaysia",3.1594766,101.7135149,ROOFTOP,ChIJ____xNA3zDERO4igW3-sa28,"establishment,point_of_interest,shopping_mall",50450,Avenue K Shopping Mall[29],1,OK
35,"Intermark Mall, The Intermark, 348, Jln Tun Razak, Kampung Datuk Keramat, 50400 Kuala Lumpur, Federal Territory of Kuala Lumpur, Malaysia",3.1616636,101.720355,ROOFTOP,ChIJVXXIZcU3zDERkpdEfCQBDT8,"establishment,point_of_interest,shopping_mall",50400,Intermark Mall[30],1,OK
36,"Persiaran KLCC, Kuala Lumpur City Centre, 50450 Kuala Lumpur, Wilayah Persekutuan Kuala Lumpur, Malaysia",3.1574804,101.7179388,GEOMETRIC_CENTER,ChIJ_8LAYF03zDER7GXrtzo1Nrs,"establishment,point_of_interest,shopping_mall",50450,M Podium KLCC (Opening soon),1,OK
37,"145, Jln Ampang, Kuala Lumpur, 50450 Kuala Lumpur, Wilayah Persekutuan Kuala Lumpur, Malaysia",3.1583721,101.7136865,ROOFTOP,ChIJlRIaD9c3zDERcnwgktmV2cE,"establishment,lodging,point_of_interest",50450,Shoppes At Four Seasons Place[31],1,OK
38,"241, Suria KLCC, Kuala Lumpur City Centre, 50088 Kuala Lumpur, Wilayah Persekutuan Kuala Lumpur, Malaysia",3.1577167,101.7121716,GEOMETRIC_CENTER,ChIJH5xmLdE3zDERKa4a_IywVck,"establishment,point_of_interest,shopping_mall",50088,Suria KLCC[32],1,OK
39,"29, Jalan Kia Peng, Kuala Lumpur, 50450 Kuala Lumpur, Wilayah Persekutuan Kuala Lumpur, Malaysia",3.15035,101.7203101,ROOFTOP,ChIJi2dXA883zDERFSj64Yed_tk,"establishment,lodging,point_of_interest,real_estate_agency",50450,The Conlay[33] (Opening soon),1,OK
40,"360, Jln Tun Razak, Taman U Thant, 50400 Kuala Lumpur, Wilayah Persekutuan Kuala Lumpur, Malaysia",3.1589303,101.7209621,ROOFTOP,ChIJc51XDnA3zDERKPSkKRzOSpI,"establishment,point_of_interest,shopping_mall",50400,The LINC KL[34],1,OK
41,,,,,,,,The Weld[35],0,ZERO_RESULTS
42,"7, Jalan Damanlela, Pusat Bandar Damansara, 50490 Kuala Lumpur, Wilayah Persekutuan Kuala Lumpur, Malaysia",3.1454342,101.6622517,ROOFTOP,ChIJW657walJzDERzv5h8vuchEg,"establishment,point_of_interest",50490,Damansara City Mall (DC Mall)[36],2,OK
43,"699, Jalan Damansara, Taman Tun Dr Ismail, 60000 Kuala Lumpur, Wilayah Persekutuan Kuala Lumpur, Malaysia",3.132696,101.6298517,ROOFTOP,ChIJj_dWfzhJzDERI9HaoLGBJq8,"establishment,point_of_interest,shopping_mall",60000,Glo Damansara[37],1,OK
44,"lot 480023, Jalan Beringin, Bukit Damansara, 50490 Kuala Lumpur, Wilayah Persekutuan Kuala Lumpur, Malaysia",3.1484911,101.6606571,ROOFTOP,ChIJc9GTnSw2zDER-VZCnvZT8Og,"establishment,general_contractor,point_of_interest,real_estate_agency",50490,Pavilion Damansara Heights[38] (Opening in Q4 2022),1,OK
45,"Level 31, Menara AIA Capsquare, Jalan Munshi Abdullah, City Centre, 50100 Kuala Lumpur, Wilayah Persekutuan Kuala Lumpur, Malaysia",3.1541482,101.7001134,GEOMETRIC_CENTER,ChIJ69s5ZyxIzDERCww7H-uT6dI,"establishment,food,point_of_interest,restaurant",50100,CapSquare Centre,1,OK
46,"Jalan Munshi Abdullah, City Centre, 50100 Kuala Lumpur, Wilayah Persekutuan Kuala Lumpur, Malaysia",3.1552049,101.6980047,GEOMETRIC_CENTER,ChIJl23w5h9JzDERYHGHhlhknmc,"establishment,point_of_interest,shopping_mall",50100,City One Plaza[39],1,OK
47,"Lot RG-B, RG Floor, Pertama Complex, Jalan Tuanku Abdul Rahman, Chow Kit, 50100 Kuala Lumpur, Wilayah Persekutuan Kuala Lumpur, Malaysia",3.1572891,101.6955726,ROOFTOP,ChIJ46t84TFIzDERnoLWLH_Jwa0,"establishment,point_of_interest,shopping_mall",50100,Pertama Complex[40],1,OK
48,"1018, Jln Sultan Ismail, Bandar Wawasan, 54200 Kuala Lumpur, Wilayah Persekutuan Kuala Lumpur, Malaysia",3.1598664,101.7000562,ROOFTOP,ChIJzw7vn65JzDER5r0wpUhcXU4,"establishment,point_of_interest,shopping_mall",54200,Quill City Mall[41],1,OK
49,"190, Jalan Tuanku Abdul Rahman, City Centre, 50100 Kuala Lumpur, Wilayah Persekutuan Kuala Lumpur, Malaysia",3.1560783,101.6952893,ROOFTOP,ChIJbUbW7y1IzDERi6WYVG8fI5c,"establishment,point_of_interest,shopping_mall",50100,SOGO Kuala Lumpur,1,OK
50,"WILAYAH PERSEKUTUAN, Chow Kit, 50350 Kuala Lumpur, Wilayah Persekutuan Kuala Lumpur, Malaysia",3.1666712,101.6925216,GEOMETRIC_CENTER,ChIJy4nAbDlJzDER6HZyA4ZtdpE,"establishment,point_of_interest,shopping_mall",50350,Sunway Putra Mall,1,OK
51,"Kuala Lumpur, Federal Territory of Kuala Lumpur, Malaysia",3.139003,101.686855,APPROXIMATE,ChIJ5-rvAcdJzDERfSgcL1uO2fQ,"locality,political",,District K @ KL Digital City[42] (Coming soon),1,OK
52,"568, Jln Ipoh, Batu Complex Bussiness Centre, 51200 Kuala Lumpur, Wilayah Persekutuan Kuala Lumpur, Malaysia",3.1892063,101.6807708,ROOFTOP,ChIJsS_IjnVIzDER3khU7BWGt9E,"establishment,lodging,point_of_interest,shopping_mall",51200,Mutiara Complex[43],1,OK
53,"5, Jln Ipoh, Taman Kok Lian, 51200 Kuala Lumpur, Wilayah Persekutuan Kuala Lumpur, Malaysia",3.2024719,101.6717983,ROOFTOP,ChIJ4ypzlM9HzDER74ZKM0oKUpY,"establishment,point_of_interest,shopping_mall",51200,Sungai Mas Plaza[44],1,OK
54,"Jalan Mega Kecil, Taman United, 58200 Kuala Lumpur, Wilayah Persekutuan Kuala Lumpur, Malaysia",3.081898,101.671394,ROOFTOP,ChIJaU-oFlBKzDERCpuSA8z_yfM,"establishment,food,grocery_or_supermarket,point_of_interest,premise,store,supermarket",58200,Plaza OUG,1,OK
55,"Menara Pearl Point 2 No. 2A, Jalan Sepadu, Off, Jln Klang Lama, Taman United, 58200 Kuala Lumpur, Wilayah Persekutuan Kuala Lumpur, Malaysia",3.0845617,101.6733784,ROOFTOP,ChIJSwoQIphLzDERUmua0iZ1wfg,"establishment,point_of_interest,shopping_mall",58200,Pearl Point Shopping Mall & Pearl Shopping Gallery[45],1,OK
56,"289, Jln Klang Lama, 58200 Kuala Lumpur, Wilayah Persekutuan Kuala Lumpur, Malaysia",3.0949783,101.6740413,ROOFTOP,ChIJxbqlojlKzDERGQxDtymPN28,"establishment,point_of_interest,shopping_mall",58200,The Scott Garden,1,OK
57,"Metro Prima, 52100 Kuala Lumpur, Wilayah Persekutuan Kuala Lumpur, Malaysia",3.213144,101.6425249,APPROXIMATE,ChIJ35pfkUBGzDERuup-yz1DT3Y,"political,sublocality,sublocality_level_1",52100,�ON Mall Metro Prima[46],1,OK
58,"Jln Kepong, Jinjang Selatan, 52000 Kuala Lumpur, Wilayah Persekutuan Kuala Lumpur, Malaysia",3.2044611,101.6675995,GEOMETRIC_CENTER,ChIJ31oLl85HzDERW9aX56STRI0,"establishment,point_of_interest,shopping_mall",52000,Brem Mall[47],1,OK
59,"Kepong, Kuala Lumpur, Federal Territory of Kuala Lumpur, Malaysia",3.2037943,101.6413776,APPROXIMATE,ChIJH_UnOyNGzDERTqjjAz1jHvI,"neighborhood,political",,Kepong Village Mall[48],1,OK
60,,,,,,,,KL Metropolis Lifestyle Mall[49] (Coming soon),0,ZERO_RESULTS
61,"KL Metropolis, Jalan Dutamas 2, Dutamas, 50480 Kuala Lumpur, Wilayah Persekutuan Kuala Lumpur, Malaysia",3.181534,101.6681976,GEOMETRIC_CENTER,ChIJ9X7h0w9JzDERx9vlh5m_pXM,"establishment,point_of_interest,shopping_mall",50480,KL Midtown[50] (Coming soon),1,OK
62,"MET 1 KL Metropolis, Jln Boulevard, Kompleks Kerajaan, 50480 Kuala Lumpur, Wilayah Persekutuan Kuala Lumpur, Malaysia",3.1763473,101.669503,GEOMETRIC_CENTER,ChIJ27liH6RJzDERq9EOpBHhExo,"establishment,point_of_interest,shopping_mall",50480,Met Galleria[51] (Opening in 2023),1,OK
63,"Lingkaran Syed Putra, Mid Valley City, 59200 Kuala Lumpur, Wilayah Persekutuan Kuala Lumpur, Malaysia",3.1174073,101.6780545,GEOMETRIC_CENTER,ChIJPbiasY5JzDER-5Fp9VNQTVY,"establishment,point_of_interest,shopping_mall",59200,Mid Valley Megamall,1,OK
64,"3101 PGA Boulevard, Palm Beach Gardens, FL 33410, USA",26.8484491,-80.0855753,ROOFTOP,ChIJPXlx3pcq34gR4C2DoXJZUqc,"establishment,point_of_interest,shopping_mall",33410,The Gardens Mall[52],1,OK
65,"KL Eco City Mall, No.3, Jalan Bangsar, 59200 Kuala Lumpur, Federal Territory of Kuala Lumpur, Malaysia",3.1193533,101.6741901,ROOFTOP,ChIJM_iX7QRJzDERQ8YMmhuPIaI,"establishment,point_of_interest,shopping_mall",59200,KL Eco City Mall[53],1,OK
66,"2, Jalan Kerinchi, Kampung Kerinchi, 59200 Kuala Lumpur, Wilayah Persekutuan Kuala Lumpur, Malaysia",3.1141124,101.6632718,ROOFTOP,ChIJq6reQYBJzDERGDH3SiooRZI,"establishment,point_of_interest,shopping_mall",59200,KL Gateway Mall[54],1,OK
67,"7, Jalan Kerinchi, Bangsar South, 59200 Kuala Lumpur, Wilayah Persekutuan Kuala Lumpur, Malaysia",3.10968,101.6653807,ROOFTOP,ChIJAQDAtStKzDERH_KXp7vMzNk,"establishment,food,point_of_interest,restaurant,shopping_mall",59200,Nexus Bangsar South[55],1,OK
68,,,,,,,,The Sphere[56],0,ZERO_RESULTS
69,"Jln Pudu, Pudu, 55100 Kuala Lumpur, Wilayah Persekutuan Kuala Lumpur, Malaysia",3.1375035,101.7134075,GEOMETRIC_CENTER,ChIJZe3XESQ2zDER1I8jS7P4HJk,"establishment,point_of_interest,shopping_mall",55100,Pudu Plaza[57],1,OK
70,"PUDU SENTRAL, 12, Jln Pudu, City Centre, 55100 Kuala Lumpur, Wilayah Persekutuan Kuala Lumpur, Malaysia",3.1456853,101.7006055,ROOFTOP,ChIJm5FoTNFJzDER2-pitV9m-e4,premise,55100,Pudu Sentral,1,OK
71,"2, Jalan 1/125e, Taman Desa Petaling, 57100 Kuala Lumpur, Wilayah Persekutuan Kuala Lumpur, Malaysia",3.0827782,101.7024706,ROOFTOP,ChIJ14mYXXdKzDERq3Rr43idU3k,"establishment,point_of_interest,shopping_mall",57100,Plaza Salak Park[58],1,OK
72,"Jln Dutamas 1, 50480 Kuala Lumpur, Wilayah Persekutuan Kuala Lumpur, Malaysia",3.1696701,101.6683503,GEOMETRIC_CENTER,ChIJswbvx11IzDERS1-gT_4eENQ,"establishment,point_of_interest,shopping_mall",50480,D'Immersione Avenue[59] (Opening in 2023),1,OK
73,"60, Jalan Sri Hartamas 1, Taman Sri Hartamas, 50480 Kuala Lumpur, Wilayah Persekutuan Kuala Lumpur, Malaysia",3.1636367,101.6569965,ROOFTOP,ChIJQdVhI_dIzDERjqhpE-AGlew,"establishment,point_of_interest,shopping_mall",50480,Hartamas Shopping Centre[60],1,OK
74,"2, Jalan Kiara, Mont Kiara, 50480 Kuala Lumpur, Wilayah Persekutuan Kuala Lumpur, Malaysia",3.1654103,101.6516822,ROOFTOP,ChIJ1_6OgcWDt4cRRtLBkclRW_o,"establishment,point_of_interest,shopping_mall",50480,Plaza Mont Kiara[61],1,OK
75,"1, Jln Dutamas 1, Solaris Dutamas, 50480 Kuala Lumpur, Wilayah Persekutuan Kuala Lumpur, Malaysia",3.1711671,101.6662111,ROOFTOP,ChIJIVqWDl5IzDERNCOhnX8t_NU,"establishment,point_of_interest,shopping_mall",50480,Publika Shopping Gallery[62],1,OK
76,,,,,,,,United Point[63],0,ZERO_RESULTS
77,"Solaris Parq, Jln Dutamas 1, Solaris On The Park, 50480 Kuala Lumpur, Wilayah Persekutuan Kuala Lumpur, Malaysia",3.1707573,101.6687072,GEOMETRIC_CENTER,ChIJo66sLihJzDERxWkFIp0MLnw,"establishment,point_of_interest,shopping_mall",50480,Solaris Parq The Mall[64] (Opening in 2025),1,OK
78,"1, Jalan Kiara, Mont Kiara, 50480 Kuala Lumpur, Wilayah Persekutuan Kuala Lumpur, Malaysia",3.165701700000001,101.6531554,ROOFTOP,ChIJz6U4mPFIzDERbNcRkGIp1LI,"establishment,point_of_interest,shopping_mall",50480,1 Mont Kiara[65],1,OK
79,"8, Jalan Kiara, Mont Kiara, 50480 Kuala Lumpur, Wilayah Persekutuan Kuala Lumpur, Malaysia",3.1664583,101.6523213,ROOFTOP,ChIJZ6ZzKPJIzDER5e9LSMzFTJE,"establishment,point_of_interest,shopping_mall",50480,163 Retail Park[66],1,OK
80,"Taman Ibu Kota LOT G21A, Taman Danau Kota, 53300 Kuala Lumpur, Wilayah Persekutuan, Malaysia",3.2045381,101.7205761,GEOMETRIC_CENTER,ChIJL4BKORI4zDERB8t2wthEFkI,"establishment,point_of_interest,shopping_mall",53300,Setapak Central[67],1,OK
81,"No.6, Jalan Taman Setiawangsa (Jalan, 37/56, AU2 Taman setiawangsa, Taman Keramat, 54200 Kuala Lumpur, Wilayah Persekutuan Kuala Lumpur, Malaysia",3.1782252,101.7504516,ROOFTOP,ChIJp7mMpJ03zDERQFYGwK_Qnbs,"establishment,point_of_interest,shopping_mall",54200,�ON AU2 (Setiawangsa) Shopping Centre[68],1,OK
82,"Jalan Enggang, Taman Keramat, 54200 Kuala Lumpur, Selangor, Malaysia",3.1675495,101.7351893,GEOMETRIC_CENTER,ChIJUZc8R7w3zDERXY-b6exTmJc,"establishment,point_of_interest",54200,Datum Jelatek Mall[69],1,OK
83,"Endah Parade, 1, Jalan 1/149e, Taman Sri Endah, 57000 Kuala Lumpur, Wilayah Persekutuan Kuala Lumpur, Malaysia",3.063303,101.6951981,ROOFTOP,ChIJg-Gw-o9KzDERlqNBQvsTb-Q,"establishment,point_of_interest,shopping_mall",57000,Endah Parade[70],1,OK
84,"Plaza 63, No. 63, Jalan 3/108C Taman Sungai Besi, Sungai Besi, 57100 Kuala Lumpur, Federal Territory of Kuala Lumpur, Malaysia",3.0919555,101.700427,GEOMETRIC_CENTER,ChIJ2VxrJitLzDERulK8ePyHT2M,"establishment,food,grocery_or_supermarket,point_of_interest,store",57100,Plaza 63,1,OK
85,"Jalan Madrasah, Jalan 1/22a, Taman Melati, 53100 Kuala Lumpur, Federal Territory of Kuala Lumpur, Malaysia",3.2178436,101.7186877,GEOMETRIC_CENTER,ChIJR-PQ0m84zDERfECwtBmV0Yk,"establishment,point_of_interest,shopping_mall",53100,M3 Mall[71],1,OK
86,"823, Jln Lingkaran Tengah 2, KL Timur, 53100 Kuala Lumpur, Selangor, Malaysia",3.2253685,101.7298059,ROOFTOP,ChIJRf33Eh05zDERKqnpK_diqS4,"establishment,point_of_interest,shopping_mall",53100,KL East Mall[72],1,OK
87,"355, Jln Bandar Melawati, Pusat Bandar Melawati, 53100 Kuala Lumpur, Selangor, Malaysia",3.2113794,101.748677,ROOFTOP,ChIJ8Si1b0o4zDERkLqhHn2rvM0,"establishment,point_of_interest,shopping_mall",53100,Melawati Mall[73],1,OK
88,"Wangsa Maju, 53300 Kuala Lumpur, Federal Territory of Kuala Lumpur, Malaysia",3.203764,101.7367351,APPROXIMATE,ChIJjQZnNSU4zDERwFV7RVXgPLc,"political,sublocality,sublocality_level_1",53300,�ON Mall Wangsa Maju[74],1,OK
89,"Jalan Wangsa Perdana 1, Wangsa Maju, 53300 Kuala Lumpur, Wilayah Persekutuan Kuala Lumpur, Malaysia",3.1982958,101.7420546,GEOMETRIC_CENTER,ChIJuRQADUM5zDERefJjZ0VhEEY,"establishment,point_of_interest,shopping_mall",53300,Wangsa Walk Mall[75],1,OK
90,"Financial Park, 87000 Labuan, Wilayah Persekutuan Labuan, Malaysia",5.275694,115.2486421,APPROXIMATE,ChIJGyOescQYIzIRhd8ZgfdWjII,"political,sublocality,sublocality_level_1",87000,Financial Park Labuan[76],1,OK
91,"Bandar Labuan, 87000 Labuan, Labuan Federal Territory, Malaysia",5.2747902,115.2452586,GEOMETRIC_CENTER,ChIJPe04m9sYIzIReKb7ZnYkkzU,"establishment,point_of_interest,shopping_mall",87000,Labuan Times Square[77],1,OK
92,"Jalan Alamanda, Presint 1, 62000 Putrajaya, Wilayah Persekutuan Putrajaya, Malaysia",2.9395291,101.7106171,GEOMETRIC_CENTER,ChIJRdkIxt_JzTERBh81g8-8zvk,"establishment,point_of_interest,shopping_mall",62000,Alamanda Shopping Centre[78],1,OK
93,"mms Gadget, 1, Jalan Tun Abdul Razak, Presint 3, 62100 Putrajaya, Malaysia",2.9198142,101.6839546,ROOFTOP,ChIJl1nEwTW2zTER2b0ajb2kpMQ,"establishment,health,pharmacy,point_of_interest,store",62100,Suria Mall Putrajaya,1,OK
94,"Management Office, Unit T2-3A-3 & Unit T2-3A-3A level 3A IOI City Tower Two Lebuh IRC, Ioi Resort, 62502 Putrajaya, Selangor, Malaysia",2.9706561,101.7136778,GEOMETRIC_CENTER,ChIJQWjHIQzKzTERgAEUgEQ4mCw,"establishment,point_of_interest,shopping_mall",62502,IOI City Mall Putrajaya[79],1,OK
95,"3, Jln Dato' Onn 3, Bandar Dato Onn, 81100 Johor Bahru, Johor, Malaysia",1.5639876,103.7344668,ROOFTOP,ChIJ2St8mxxu2jERTeACpDMGci4,"establishment,point_of_interest,shopping_mall",81100,AEON Mall Bandar Dato' Onn,1,OK
96,"Jalan Premium Outlets, Bandar Indahpura, 81000 Kulai, Johor, Malaysia",1.6028941,103.6214825,GEOMETRIC_CENTER,ChIJi9eLLjp32jERCIzJKhsQF7k,"establishment,point_of_interest,shopping_mall",81000,Johor Premium Outlets,1,OK
97,"Southkey, 81100 Johor Bahru, Johor, Malaysia",1.5009581,103.7773778,GEOMETRIC_CENTER,ChIJtc_vgOFs2jERtTpxahI--kw,"establishment,point_of_interest,shopping_mall",81100,Mid Valley Southkey,1,OK
98,"Lot 3FK-12J, third floor, Paradigm Mall, Jalan Bertingkat Skudai, 81200 Johor Bahru, Johor, Malaysia",1.5168375,103.685325,ROOFTOP,ChIJIf-ff_9y2jERb19MfG9Nuw0,"establishment,point_of_interest,shopping_mall",81200,Paradigm Mall Johor Bahru,1,OK
99,,,,,,,,R&F Mall,0,ZERO_RESULTS
100,"Pusat Komersial Sunway Marketplace, Persiaran Medini 5, Sunway, 79250 Nusajaya, Johor, Malaysia",1.3972123,103.6286544,GEOMETRIC_CENTER,ChIJTRUlEvsJ2jERXZwBkeEWloo,"establishment,point_of_interest,shopping_mall",79250,Sunway Big Box,1,OK
101,"Toppen Shopping Centre, No. 33A, Jln Harmonium, Taman Desa Tebrau, 81100 Johor Bahru, Johor, Malaysia",1.5526948,103.7985511,ROOFTOP,ChIJ5eu_6p9u2jERBYoI5dwLfzY,"establishment,point_of_interest,shopping_mall",81100,Toppen Shopping Centre,1,OK
102,"69, Jalan Ali, Pekan Muar, 84000 Muar, Johor, Malaysia",2.0442051,102.5664675,ROOFTOP,ChIJqam9lw-50TERvkqdhvcILoM,"establishment,point_of_interest,shopping_mall",84000,Wetex Parade,1,OK
103,"Lot G51 & G52 Ground Floor Batu Pahat Mall, Jalan Kluang, Kampung Beroleh, 83000 Batu Pahat, Johor, Malaysia",1.8638514,102.9620855,GEOMETRIC_CENTER,ChIJvSc_pbFQ0DER0627YD-67RQ,"establishment,health,pharmacy,point_of_interest,store",83000,Batu Pahat Mall,1,OK
104,"1201 Broadway, Saugus, MA 01906, USA",42.4608341,-71.0274472,ROOFTOP,ChIJudr69F9y44kRcygDx9L4yAY,"establishment,point_of_interest,shopping_mall",01906,Square One Mall,1,OK
105,"88, Jalan Bakau Condong, Kampung Pegawai, 83000 Batu Pahat, Johor, Malaysia",1.8576681,102.9346164,ROOFTOP,ChIJp9hnB81W0DER_rYnnlBxPyc,"establishment,point_of_interest,shopping_mall",83000,The Summit Batu Pahat,1,OK
106,"Grand Mezzanine, 8, Jalan Indah 15/2, Taman Bukit Indah, 81200 Johor Bahru, Johor, Malaysia",1.4817523,103.6557625,ROOFTOP,ChIJt0xtwktz2jERRS2DKtCZfp0,"establishment,point_of_interest,shopping_mall",81200,�ON Mall Bukit Indah,1,OK
107,"Taman Universiti, 81300 Skudai, Johor, Malaysia",1.534054,103.621729,APPROXIMATE,ChIJvQvy12x02jERQ1RlloKAHx4,"political,sublocality,sublocality_level_1",81300,�ON Taman Universiti Shopping Centre,1,OK
108,"EKO GALLERIA, 3, Jalan Eko Botani 3/2, TAMAN EKO BOTANI, 79100 Nusajaya, Johor, Malaysia",1.4413451,103.6167703,ROOFTOP,ChIJB4cAQkAL2jERvgdvHAln7I0,"establishment,point_of_interest,shopping_mall",79100,Eco Galleria (Opening in 2021),1,OK
109,"Mall of Medini, 79100 Nusajaya, Johor, Malaysia",1.4290229,103.6331061,ROOFTOP,ChIJTWnN_ogL2jER_vHyehiA0K4,premise,79100,Mall of Medini,1,OK
110,"3, Jln Persisiran Perling, Taman Perling, 81200 Johor Bahru, Johor, Malaysia",1.4967001,103.6809575,ROOFTOP,ChIJHy20ih9z2jERrDl0bzQ2xwQ,"establishment,premise",81200,Perling Mall,1,OK
111,"Skudai, Johor, Malaysia",1.5343616,103.6594267,APPROXIMATE,ChIJ-YGBIc5z2jERrMBtmA4SwAc,"locality,political",,Skudai Parade[80],1,OK
112,"Pusat Komersial Sunway Marketplace, Persiaran Medini 5, Sunway, 79250 Nusajaya, Johor, Malaysia",1.3972123,103.6286544,GEOMETRIC_CENTER,ChIJTRUlEvsJ2jERXZwBkeEWloo,"establishment,point_of_interest,shopping_mall",79250,Sunway Big Box[81],1,OK
113,"L3-086, Sutera Mall, 1, Jalan Sutera Tanjung 8/4, Taman Sutera Utama, 81300 Skudai, Johor, Malaysia",1.5176508,103.6715487,ROOFTOP,ChIJ5-YuwMFz2jERCJbqqo0ig0U,"establishment,point_of_interest,shopping_mall",81300,Sutera Mall[82],1,OK
114,"Plaza Tasek, 2, Jalan Pendekar 16, Taman Ungku Tun Aminah, 81300 Skudai, Johor, Malaysia",1.5144949,103.6558659,ROOFTOP,ChIJMzC4uXVz2jERDMi3_zkpoB0,"establishment,point_of_interest,shopping_mall",81300,Tasik Central[83],1,OK
115,"155 Dorset St, South Burlington, VT 05403, USA",44.4658817,-73.184102,ROOFTOP,ChIJ7ad-fzR6ykwRsKcl0xIGe4o,"establishment,point_of_interest,shopping_mall",05403,U Mall,1,OK
116,"Bandar Dato Onn, Johor Bahru, Johor, Malaysia",1.5632732,103.7410752,APPROXIMATE,ChIJw2VafpV22jERvnPgWVwc5kU,"political,sublocality,sublocality_level_1",,�ON Mall Bandar Dato' Onn,1,OK
117,"Jalan 14/17, Seksyen 14, 46100 Petaling Jaya, Selangor, Malaysia",3.1091099,101.637092,GEOMETRIC_CENTER,ChIJL1DQlOBLzDERdyz6BPjUSxY,"establishment,food,grocery_or_supermarket,point_of_interest,shopping_mall,store,supermarket",46100,�ON Permas Jaya Shopping Centre,2,OK
118,"G29 & 30, AEON Mall Tebrau City No. 1, Jalan Desa Tebrau, Taman Desa Tebrau, 81100 Johor Bahru, Johor, Malaysia",1.5494617,103.7958733,GEOMETRIC_CENTER,ChIJAwcNvJBu2jERWkNlEBOFETQ,"bakery,establishment,food,point_of_interest,store",81100,�ON Mall Tebrau City,1,OK
119,"L3-31A LEVEL 3, ANGSANA JOHOR BAHRU MALL,81200 JOHOR BAHRU, Bandar Baru Uda, 81200 Johor Bahru, Johor, Malaysia",1.4949273,103.7057484,GEOMETRIC_CENTER,ChIJH9Llir9y2jERFryY-pcx09Y,"establishment,point_of_interest,shopping_mall",81200,Angsana Johor Bahru Mall,1,OK
120,"No.01-01, Shopping Mall Ground Floor, Bay Point Persiaran Danga Perdana Country Garden, Danga Bay, 80200 Johor Bahru, Johor, Malaysia",1.4631843,103.7284801,GEOMETRIC_CENTER,ChIJEbcwvM8N2jER44RtBXa_ZmU,"establishment,movie_theater,point_of_interest,shopping_mall",80200,Beletime Danga Bay[84],1,OK
121,"Jalan Tun Abdul Razak L4 Danga City Mall, Wadi Hana, 80000 Johor Bahru, Johor, Malaysia",1.4753051,103.7547592,GEOMETRIC_CENTER,ChIJcRMOrssS2jERU2e2AZOthDk,"establishment,point_of_interest",80000,Danga City Mall (Temporarily closed for renovations),1,OK
122,"Jalan Trus, UTC, 80000 Johor Bahru, Johor, Malaysia",1.4594943,103.7630603,GEOMETRIC_CENTER,ChIJj17Dt8IS2jERpo41GcSpoJE,"establishment,point_of_interest,shopping_mall",80000,Galleria@Kotaraya[85],1,OK
123,"2256 Haverhill Rd, West Palm Beach, FL 33417, USA",26.7111247,-80.1170355,ROOFTOP,ChIJKx_9e-op2YgRJJX3ICu9afE,"establishment,lodging,point_of_interest,rv_park",33417,Holiday Plaza,1,OK
124,"106, Jalan Wong Ah Fook, Bandar Johor Bahru, 80000 Johor Bahru, Johor, Malaysia",1.461799,103.7639603,ROOFTOP,ChIJpfDsy9wS2jERrbLjDm0_BFY,"establishment,premise",80000,Johor Bahru City Square,1,OK
125,"KOMTAR JBCC, City Centre, 80000 Johor Bahru, Johor, Malaysia",1.4639632,103.7627382,GEOMETRIC_CENTER,ChIJIyLLVcMS2jER0xwvgEmFUk4,"establishment,point_of_interest,shopping_mall",80000,Komtar JBCC,1,OK
126,"33, Jalan Seladang, Taman Abad, 80250 Johor Bahru, Johor, Malaysia",1.4854384,103.7628811,ROOFTOP,ChIJZ6EbFTBt2jERflX9tqaEOF0,"establishment,point_of_interest,shopping_mall",80250,KSL City Mall,1,OK
127,"Lot 3FK-12J, third floor, Paradigm Mall, Jalan Bertingkat Skudai, 81200 Johor Bahru, Johor, Malaysia",1.5168375,103.685325,ROOFTOP,ChIJIf-ff_9y2jERb19MfG9Nuw0,"establishment,point_of_interest,shopping_mall",81200,Paradigm Mall Johor Bahru[87],1,OK
128,"135, Jalan Tampoi, Kampung Bahru Majidee, 81100 Johor Bahru, Johor, Malaysia",1.5147302,103.7433824,ROOFTOP,ChIJVYHWPTJt2jERwzbuMKY3FDQ,"establishment,point_of_interest,shopping_mall",81100,Paragon Market Place[88],1,OK
129,"Lot 3.29 & 3.29A, Level, 3, Jalan Kuning, Taman Pelangi, 80400 Johor Bahru, Johor, Malaysia",1.4799714,103.7652664,ROOFTOP,ChIJEVipoi1t2jERSAPBSPOsOpg,"establishment,point_of_interest,shopping_mall",80400,Plaza Pelangi,1,OK
130,"Jalan Sutera, Taman Sentosa, 80150 Johor Bahru, Johor, Malaysia",1.4922183,103.7683756,ROOFTOP,ChIJ6_yz6CNt2jERkrQk9jAFC8U,"establishment,premise",80150,Plaza Sentosa,1,OK
131,,,,,,,,R&F Mall Johor Bahru,0,ZERO_RESULTS
132,"Jalan Persiaran Senibong, Bandar Baru Permas Jaya, 81750 Johor Bahru, Johor, Malaysia",1.4864549,103.8096492,GEOMETRIC_CENTER,ChIJD4bLtLps2jERgzxSMHeMagg,"establishment,point_of_interest",81750,Stellar Walk,1,OK
133,"Batu 13 3/4, Jalan Kota Tinggi, 81800 Ulu Tiram, Johor, Malaysia",1.6086539,103.821166,ROOFTOP,ChIJyTOORDVv2jERXgIKHliQDmE,"establishment,point_of_interest,shopping_mall",81800,Today's Mall,1,OK
134,"Toppen Shopping Centre, No. 33A, Jln Harmonium, Taman Desa Tebrau, 81100 Johor Bahru, Johor, Malaysia",1.5526948,103.7985511,ROOFTOP,ChIJ5eu_6p9u2jERBYoI5dwLfzY,"establishment,point_of_interest,shopping_mall",81100,Toppen Shopping Centre[89],1,OK
135,"Jln Rambutan, Taman Suria, 86000 Kluang, Johor, Malaysia",2.0400737,103.3205798,GEOMETRIC_CENTER,ChIJF0wwO65t0DERDAwUFJpUux8,"establishment,point_of_interest,shopping_mall",86000,Kluang Mall[90],1,OK
136,"Kluang, Johor, Malaysia",2.030068,103.3184639,APPROXIMATE,ChIJiWlmFDps0DERrE-AQYLA1c8,"locality,political",,Kluang Parade,1,OK
137,"1895 14th Ave SE, Albany, OR 97322, USA",44.63004850000001,-123.0820771,ROOFTOP,ChIJAeZwgLxswFQRRi6WRVV1z8w,"establishment,point_of_interest,shopping_mall",97322,Heritage Mall,1,OK
138,"G 53, Plaza, Pusat Perdagangan Kota Tinggi, 81900 Kota Tinggi, Johor, Malaysia",1.7305938,103.9025016,GEOMETRIC_CENTER,ChIJIbVElDVh2jERQ2WYYo0LDJg,"clothing_store,establishment,point_of_interest,store",81900,Plaza Kota Tinggi,1,OK
139,"Kulai District, Johor, Malaysia",1.6582668,103.6060338,APPROXIMATE,ChIJhej7KXx42jERTqMJvRTHEWE,"administrative_area_level_3,political",,�ON Mall Kulaijaya,1,OK
140,"LG-01, Lower Ground Floor, Lebuh Putra Utama, Bandar Putra Kulai, 81000 Kulai, Johor, Malaysia",1.6481162,103.6265492,GEOMETRIC_CENTER,ChIJmQ5JFMx72jER6SVA4Lu05ds,"establishment,point_of_interest,shopping_mall",81000,IOI Mall Kulai[91],2,OK
141,"Jalan Premium Outlets, Bandar Indahpura, 81000 Kulai, Johor, Malaysia",1.6028941,103.6214825,GEOMETRIC_CENTER,ChIJi9eLLjp32jERCIzJKhsQF7k,"establishment,point_of_interest,shopping_mall",81000,Johor Premium Outlets[92],1,OK
142,"Lot 1566, 20, Jln Besar, Taman Mewah, 81000 Kulai, Johor, Malaysia",1.661671,103.603182,ROOFTOP,ChIJcdGR_KV52jER0QGlXt-kusE,"establishment,point_of_interest,shopping_mall",81000,Kulai Centre Point[93],1,OK
143,"69, Jalan Ali, Pekan Muar, 84000 Muar, Johor, Malaysia",2.0442051,102.5664675,ROOFTOP,ChIJqam9lw-50TERvkqdhvcILoM,"establishment,point_of_interest,shopping_mall",84000,Wetex Parade[94],1,OK
144,"16, Jalan Petrie, Taman Sri Tanjung, 84000 Muar, Johor, Malaysia",2.0461191,102.5633197,ROOFTOP,ChIJB34rpBq50TERBy1wPWFM71E,"establishment,point_of_interest",84000,Muar Trade Centre[95],1,OK
145,"Bandar Penawar, 81930 Kota Tinggi, Johor, Malaysia",1.5737522,104.2063891,GEOMETRIC_CENTER,ChIJVQ9aqDtM2jERBke0FwaS1kg,"establishment,point_of_interest,shopping_mall",81930,SKS City Mall,1,OK
146,"Pontian Plaza, Kampung Atap, 82000 Pontian District, Johor, Malaysia",1.4812175,103.3922154,ROOFTOP,ChIJDcEel3eY0DERf0b8w22jlXg,premise,82000,Plaza Pontian,1,OK
147,"Segamat Central Shopping Centre, Jln Kolam Air, Kampung Gubah, 85000 Segamat District, Johor, Malaysia",2.5097601,102.8118128,GEOMETRIC_CENTER,ChIJGcBipS7TzzERyqPdjm-UbBg,"establishment,point_of_interest,shopping_mall",85000,Segamat Central(formerly One Segamat Mall)[96],2,OK
148,,,,,,,,U Sentral Shopping Centre[97],0,ZERO_RESULTS
149,"Lot F29, Ground Floor, Alor Setar Mall, Kaw Perusahaan, Tandop, 05400 Alor Setar, Kedah, Malaysia",6.0813007,100.3608513,GEOMETRIC_CENTER,ChIJDUwp1nFESzAReousEvPJIGI,"establishment,health,pharmacy,point_of_interest,store",05400,Alor Setar Mall,1,OK
150,"Aman Central, 1, Darul Aman Hwy, Kampung Lubok Peringgi, 05100 Alor Setar, Kedah, Malaysia",6.1248637,100.3667935,ROOFTOP,ChIJpRemiblESzARdkytmmL-ofQ,"establishment,point_of_interest,shopping_mall",05100,Aman Central[98],1,OK
151,"133 Trinity Ave SW, Atlanta, GA 30303, USA",33.7490106,-84.3918199,ROOFTOP,ChIJjaxHa4MD9YgRiFw9e1lKeiY,"establishment,point_of_interest",30303,City Plaza,1,OK
152,"Swami jairamdas building Opp Basant park police stn, 3V2V+7CC, शिवसाई को हा सोसायटी, Sindhi Society, Chembur, Mumbai, Maharashtra 400071, India",19.0506991,72.8935047,GEOMETRIC_CENTER,ChIJ-xXEt6jI5zsRM-AGUDTNWlw,"establishment,food,point_of_interest,restaurant",400071,Star Parade,1,OK
153,"Jalan Putra, Bandar Alor Setar, 05150 Alor Setar, Kedah, Malaysia",6.1222064,100.3637236,GEOMETRIC_CENTER,ChIJ2UuRCrtESzAR-6b9dN2fKNo,"electronics_store,establishment,point_of_interest,store",05150,Sentosa Plaza,1,OK
154,"29, Pekan Jitra 3, Pekan Jitra, 06000 Jitra, Kedah, Malaysia",6.261108999999999,100.4185303,ROOFTOP,ChIJ36e7SjVYSzARzYYwpAKfgNg,"establishment,point_of_interest,shopping_mall",06000,Jitra Mall,1,OK
155,"Kulim Landmark Central, 09000 Kulim, Kedah, Malaysia",5.3856544,100.5467376,GEOMETRIC_CENTER,ChIJ2URlB_bLSjAR0bwuwNORo1w,"establishment,point_of_interest,shopping_mall,store",09000,Kulim Landmark Central[99],2,OK
156,"Lot 2605, Cenang, Mukim, Jalan Pantai Chenang, Kampung Lubok Buaya, 07000 Langkawi, Kedah, Malaysia",6.2907234,99.7278025,GEOMETRIC_CENTER,ChIJKW5Pt96HSzARGGghnTvlAnI,"establishment,point_of_interest,shopping_mall",07000,Cenang Mall,1,OK
157,"Persiaran Putra Kuah, Kuah, 07000 Langkawi, Kedah, Malaysia",6.3097561,99.85595719999999,GEOMETRIC_CENTER,ChIJ2Rx4voCASzARDUgXoCXXD-o,"establishment,point_of_interest,shopping_mall",07000,Langkawi Fair Shopping Mall[100],1,OK
158,"21, Lorong Tiram, 07000 Kuah, Kedah, Malaysia",6.3272016,99.83838759999999,ROOFTOP,ChIJw8y-HWl_TDARPcxEZf3K_9Y,"clothing_store,department_store,electronics_store,establishment,food,grocery_or_supermarket,point_of_interest,shopping_mall,store,supermarket",07000,Langkawi Parade [101],1,OK
159,"Amanjaya, 08000 Sungai Petani, Kedah, Malaysia",5.6425186,100.5451707,APPROXIMATE,ChIJB26VaQ4qSzAR2MTxXJNU9KY,"political,sublocality,sublocality_level_1",08000,Amanjaya Mall[102],1,OK
160,,,,,,,,Central Square[103],0,ZERO_RESULTS
161,"Taman Sejati Indah, 08000 Sungai Petani, Kedah, Malaysia",5.612924,100.4849021,GEOMETRIC_CENTER,ChIJfZL1tUrWSjARoYglzxmHPc0,"establishment,point_of_interest,shopping_mall",08000,Petani Parade[104],1,OK
162,"Taman Sri Tanjung, 08000 Sungai Petani, Kedah, Malaysia",5.6451449,100.4887891,GEOMETRIC_CENTER,ChIJ60JydtIpSzAROEnKcT8pKnI,"establishment,point_of_interest,shopping_mall",08000,SP Plaza[105],1,OK
163,,,,,,,,Village Mall[106],0,ZERO_RESULTS
164,"15200 Kota Bharu, Kelantan, Malaysia",6.124785,102.2543825,APPROXIMATE,ChIJM28dhNivtjERiXVvwYYZJb8,"locality,political",15200,�ON Mall Kota Bharu[107],1,OK
165,"PT101 &102, 1, Jalan Hamzah, Seksyen 16, 15050 Kota Bharu, Kelantan, Malaysia",6.117460599999999,102.2401375,ROOFTOP,ChIJ46TVO5CvtjERw5To4Somqtw,"establishment,point_of_interest,shopping_mall",15050,KB Mall [1],1,OK
166,"LOT 2138, WISMA G ORANGE, TUNJUNG, BATU 4 1/2, 15050 Kota Bharu, Kelantan, Malaysia",6.065843,102.238763,GEOMETRIC_CENTER,ChIJqUnR2vavtjERQ8H9p3mRNK8,"electronics_store,establishment,furniture_store,hardware_store,home_goods_store,point_of_interest,shopping_mall,store",15050,G-Orange Mall Tunjong,1,OK
167,"Jalan Pasir Puteh, Kota Sri Mutiara 97, 15000, Kota Bharu, Bandar Kota Bharu, 15150 Kota Bharu, Kelantan, Malaysia",6.112997399999999,102.2500503,GEOMETRIC_CENTER,ChIJcYILOOGvtjERj9BOPL0jFyY,"establishment,point_of_interest",15150,Kota Seri Mutiara Shopping Centre,1,OK
168,"Lot 5644, Jalan Buluh Kubu, Bandar Kota Bharu, 15000 Kota Bharu, Kelantan, Malaysia",6.129268700000001,102.2393905,ROOFTOP,ChIJg0RHbM-vtjER343XQBw1dCw,"establishment,point_of_interest,shopping_mall",15000,Kota Bharu Trade Centre (KBTC) Kota Bharu,1,OK
169,"Jalan Kemus / Sempang Ampat, 78000 Alor Gajah, Melaka, Malaysia",2.4435074,102.2045586,GEOMETRIC_CENTER,ChIJ7eg6HasDzjERCs5TACadUM4,"establishment,point_of_interest,shopping_mall",78000,Freeport A'Famosa Outlet[108],1,OK
170,"G26 & F31, Lebuh Ayer Keroh, 75450 Melaka, Malaysia",2.231643,102.2824164,ROOFTOP,ChIJRUQNwJXv0TER_BU8-rdIuzM,"establishment,point_of_interest,shopping_mall",75450,�ON Mall Melaka (Ayer Keroh),1,OK
171,"Malacca, Malaysia",2.189594,102.2500868,APPROXIMATE,ChIJ3WWMjifu0TERagGedoFyKgM,"locality,political",,�ON Mall Bandaraya Melaka,1,OK
172,"Jln Merdeka, Bandar Hilir, 75000 Melaka, Malaysia",2.189751,102.252619,GEOMETRIC_CENTER,ChIJhXSb5-Dx0TERyKwfXu_R9LE,"establishment,point_of_interest,shopping_mall",75000,Dataran Pahlawan Melaka Megamall[109],1,OK
173,"Jalan Melaka Raya 23, Hatten City, 75000 Melaka, Malaysia",2.1826318,102.2627254,GEOMETRIC_CENTER,ChIJe41XzwTu0TERWyzxuEakSZE,"establishment,point_of_interest,shopping_mall",75000,Elements Mall Malacca[110],1,OK
174,"Jalan Hang Tuah, 75300 Melaka, Malaysia",2.2025536,102.2478661,GEOMETRIC_CENTER,ChIJd5APvdDx0TER9zhA8atVsbI,"establishment,point_of_interest,shopping_mall",75300,Hang Tuah Plaza,1,OK
175,"Hatten Square, Jln Merdeka, Taman Costa Mahkota, 75000 Malacca, Malaysia",2.1892815,102.2519395,GEOMETRIC_CENTER,ChIJcTCHCOHx0TER4G3mZonKf8M,"establishment,food,point_of_interest,restaurant,shopping_mall",75000,Hatten Square[111],1,OK
176,"192, Melaka Raya, 75000 Malacca, Malaysia",2.1821085,102.2616243,GEOMETRIC_CENTER,ChIJ_WhWncnv0TERPFuySTt-gI0,"establishment,point_of_interest,shopping_mall",75000,Imperio mall[112],1,OK
177,,,,,,,,K7 Community Mall,0,ZERO_RESULTS
178,,,,,,,,Mahkota Parade[113],0,ZERO_RESULTS
179,"Malacca, Malaysia",2.189594,102.2500868,APPROXIMATE,ChIJ3WWMjifu0TERagGedoFyKgM,"locality,political",,Melaka Mall (formerly Kotamas),2,OK
180,"Jalan Tun Ali, 75300 Melaka, Malaysia",2.2076596,102.2450682,GEOMETRIC_CENTER,ChIJE7fLPtLx0TERAp-ij6Txk8k,"department_store,establishment,finance,food,grocery_or_supermarket,movie_theater,point_of_interest,shopping_mall,store",75300,Soon Seng Plaza,1,OK
181,"105, Jln Merdeka, Taman Melaka Raya, 75000 Melaka, Malaysia",2.1893499,102.2535295,ROOFTOP,ChIJS58QpOHx0TERz6n0DErg8jM,"establishment,point_of_interest,shopping_mall",75000,Terminal Pahlawan (Melaka wholesale city) [114],1,OK
182,"193, Pinggiran @ Sungai Melaka, Jalan Persisiran Bunga Raya, Kampung Bunga Paya Pantai, 75100 Melaka, Malaysia",2.2018593,102.2503009,GEOMETRIC_CENTER,ChIJCRqgSNfx0TERyquQAWjDFn0,"establishment,point_of_interest,shopping_mall",75100,The Shore Shopping Gallery[115],1,OK
183,"Nilai, Negeri Sembilan, Malaysia",2.802455,101.7988711,APPROXIMATE,ChIJV8KgnyfEzTERL7kSmaec_sM,"locality,political",,�ON Mall Nilai[116],1,OK
184,"Persiaran Ilmu, Bandar Baru Nilai, 71800 Nilai, Negeri Sembilan, Malaysia",2.824634,101.7784865,GEOMETRIC_CENTER,ChIJN7EK_JLGzTERZxVcqpdLtwQ,"establishment,point_of_interest,shopping_mall",71800,MesaMall Nilai[117],1,OK
185,,,,,,,,Regina Mall[118],0,ZERO_RESULTS
186,"Seremban 2, 70300 Seremban, Negeri Sembilan, Malaysia",2.6902865,101.9077089,APPROXIMATE,ChIJYwiKq8fnzTERF0uYJnJgrxY,"political,sublocality,sublocality_level_1",70300,�ON Seremban 2 Shopping Centre[119],1,OK
187,"33, Jalan Dato Siamang Gagap, Betaria Business Centre, 70100 Seremban, Negeri Sembilan, Malaysia",2.7228949,101.955192,ROOFTOP,ChIJEymTi4zdzTERdVnybvURBKo,"establishment,point_of_interest,shopping_mall",70100,Centrepoint Seremban Shopping Mall[120],1,OK
188,"Era Square, 70200 Seremban, Negeri Sembilan, Malaysia",2.725947,101.9316442,APPROXIMATE,ChIJ-ZjwrXndzTERdvW5svfdosE,"political,sublocality,sublocality_level_1",70200,Era Square,1,OK
189,"Jalan Tuanku Munawir, Bandar Seremban, 70000 Seremban, Negeri Sembilan, Malaysia",2.7232489,101.9373923,ROOFTOP,ChIJrYKPLILdzTER78R2yiiDGZM,"establishment,point_of_interest,premise,shopping_mall",70000,KM Plaza,1,OK
190,,,,,,,,Palm Mall[121],0,ZERO_RESULTS
191,"Lebuhraya Seremban - Bukit Nenas, 70200 Seremban, Negeri Sembilan, Malaysia",2.7167752,101.9194177,GEOMETRIC_CENTER,ChIJU3JplYnnzTERm2AvZ9YUdtM,"establishment,point_of_interest,shopping_mall",70200,Seremban Gateway,1,OK
192,"Seremban, Negeri Sembilan, Malaysia",2.725889,101.9378239,APPROXIMATE,ChIJn9DV6gXezTER6jFwFfY4PFY,"locality,political",,Seremban Prima[122],1,OK
193,"Jalan Lintang, Bandar Seremban, 70000 Seremban, Negeri Sembilan, Malaysia",2.7220551,101.9370344,GEOMETRIC_CENTER,ChIJM5cwioHdzTERrun_Tkdtn7k,"establishment,point_of_interest,shopping_mall",70000,Terminal One Mall[123],1,OK
194,"Awana Transport Hub Genting Highlands Resorts, 69000 Genting Highlands, Pahang, Malaysia",3.404295,101.7832708,GEOMETRIC_CENTER,ChIJe3CFsT0UzDERHul0m-p7sW0,"establishment,point_of_interest",69000,Awana SkyCentral[126],1,OK
195,"Genting Highlands, 69000 Genting Highlands, Pahang, Malaysia",3.4229492,101.7934354,GEOMETRIC_CENTER,ChIJ235KkwAUzDERH3vgvWTDy4w,"establishment,point_of_interest,shopping_mall",69000,First World Plaza[127],1,OK
196,"KM13, 69000 Genting Highlands, Pahang, Malaysia",3.4033765,101.7831159,GEOMETRIC_CENTER,ChIJQwP5jDwUzDERqbMpmoMrOxU,"establishment,point_of_interest,shopping_mall",69000,Genting Highlands Premium Outlet[128][129],1,OK
197,"Resorts World Genting, Genting Highlands, 69000 Genting Highlands, Pahang, Malaysia",3.4250433,101.7963925,GEOMETRIC_CENTER,ChIJnS8ZEgEUzDERPCZ8T9g2rvs,"establishment,point_of_interest,shopping_mall",69000,SkyAvenue[130],1,OK
198,"Level 8 Menara Khuan Choo 75A, Jalan Raja Chulan, Bukit Bintang, 50200 Kuala Lumpur, Wilayah Persekutuan Kuala Lumpur, Malaysia",3.1502134,101.7121302,GEOMETRIC_CENTER,ChIJz7ywUSs2zDERB7yr1X51wdM,"establishment,general_contractor,point_of_interest",50200,Pavilion Genting Highlands[131] (Opening soon),1,OK
199,"G33, (Ground Floor), Berjaya Megamall, Jalan Tun Ismail, 25000, Kuantan, Pahang, 25000 Kuantan, Pahang, Malaysia",3.8152359,103.3300424,GEOMETRIC_CENTER,ChIJQ8uNAZG6yDERxj6Er1okPwQ,"establishment,point_of_interest,shopping_mall",25000,Berjaya Megamall,1,OK
200,,,,,,,,East Coast Mall[132],0,ZERO_RESULTS
201,"Jalan Haji Abdul Rahman, 25000 Kuantan, Pahang, Malaysia",3.8050068,103.3231327,GEOMETRIC_CENTER,ChIJmwiZg3-7yDEREO95KCC8QEc,"establishment,point_of_interest,shopping_mall",25000,Kuantan Parade[133],1,OK
202,"Jalan Putra Square 6, 1, Level 5, Putra Square, 25300 Kuantan, Pahang, Malaysia",3.817596299999999,103.3275975,ROOFTOP,ChIJL8ndyJO6yDERPPk1Ik4szJc,"establishment,point_of_interest,shopping_mall",25300,Kuantan City Mall[134],1,OK
203,,,,,,,,Teruntum Complex,0,ZERO_RESULTS
204,"A91, Jalan Tun Ismail, Sri Dagangan Bussiness Centre, 25000 Kuantan, Pahang, Malaysia",3.8124961,103.326357,ROOFTOP,ChIJKQjrAZG6yDERuei33QBbSxw,"establishment,home_goods_store,point_of_interest,shopping_mall,store",25000,Gio Mall[135],1,OK
205,"Temerloh, Pahang, Malaysia",3.448649,102.4163482,APPROXIMATE,ChIJmW_fx5a4zjERfURcwsYR73Q,"locality,political",,Temerloh Mall,1,OK
206,"Pusat Perniagaan Cengal 2, 87, Kampung Carak Paya Dalam, 28000 Temerloh, Pahang, Malaysia",3.4580056,102.4017715,GEOMETRIC_CENTER,ChIJZ3qtdvi4zjERAAp2YE8V7nU,"establishment,food,grocery_or_supermarket,point_of_interest,store,supermarket",28000,TMG Temerloh,1,OK
207,"Lot F-74, Tingkat 2, Mentakab Star Mall, No.1, Jalan Star City 1, Star City, 28400 Mentakab, Pahang, Malaysia",3.471256,102.331764,GEOMETRIC_CENTER,ChIJzxUKzBO6zjERVgo96TTJPoo,"establishment,movie_theater,point_of_interest",28400,Mentakab Star Mall,1,OK
208,"182, Jalan Magazine, 10300 George Town, Pulau Pinang, Malaysia",5.4130454,100.3311692,ROOFTOP,ChIJiW2u2vHDSjARY7j9FGS58aM,"establishment,point_of_interest,shopping_mall",10300,1st Avenue Mall,1,OK
209,"87 Thanon Witthayu, Khwaeng Lumphini, Khet Pathum Wan, Krung Thep Maha Nakhon 10330, Thailand",13.7390209,100.5483427,ROOFTOP,ChIJGcZvpN6e4jARHLoBiwtSryg,"establishment,point_of_interest,shopping_mall",10330,All Seasons Place,2,OK
210,"3A, 06-01, Jalan Rumbia, Kampung Seberang Paya, 11900 Bayan Lepas, Pulau Pinang, Malaysia",5.3335423,100.2911131,ROOFTOP,ChIJY49WfUTASjARbSbexT9iW5I,"establishment,point_of_interest,shopping_mall",11900,Bukit Jambul Complex[136],1,OK
211,"70-1-76 D'Piazza Mall, Bayan Baru, 11900 Bayan Lepas, Pulau Pinang, Malaysia",5.3265257,100.2833421,GEOMETRIC_CENTER,ChIJq4Mf6mrASjAR8xp7dE9WrnQ,"establishment,point_of_interest,shopping_mall",11900,D'Piazza Mall[137],1,OK
212,"10000 George Town, Penang, Malaysia",5.4135005,100.3281261,ROOFTOP,ChIJP4ZrkJXDSjAR5s5Fu2PrF4A,"establishment,premise",10000,GAMA Supermarket & Departmental Store,1,OK
213,"Jalan Mahsuri, Bandar Bayan Baru, 11900 Bayan Lepas, Pulau Pinang, Malaysia",5.326665999999999,100.2850209,GEOMETRIC_CENTER,ChIJwS-OUzfBSjARbC6nqMwbYN8,"establishment,point_of_interest",11900,GBS@Mayang[138],1,OK
214,"163-D, Gurney Paragon Mall,, Gurney Drive, 10250 George Town, Penang, Malaysia",5.4357127,100.3108976,GEOMETRIC_CENTER,ChIJHTeoOQbDSjARsTHDtwiCS9Y,"establishment,point_of_interest,shopping_mall",10250,Gurney Paragon,1,OK
215,"170, Persiaran Gurney, Pulau Tikus, 10250 George Town, Pulau Pinang, Malaysia",5.4380431,100.3100232,ROOFTOP,ChIJbV1ghQPDSjARqoUoHwF0xjM,"establishment,point_of_interest,shopping_mall",10250,Gurney Plaza,1,OK
216,"UNIT NO.1B&1D, 1.01-4.01, KOMTAR, Jln Penang, 10000 George Town, Penang, Malaysia",5.4139293,100.3305011,GEOMETRIC_CENTER,ChIJ2XnugpbDSjARJDud-jMiUY8,"establishment,point_of_interest,shopping_mall",10000,ICT @ Komtar Digital Mall[139],1,OK
217,,,,,,,,Island Plaza[140],0,ZERO_RESULTS
218,"Komtar, 10450 George Town, Pulau Pinang, Malaysia",5.414587200000001,100.3297474,ROOFTOP,ChIJP4BcxJXDSjARIkAwoVy-ih8,premise,10450,Komtar,1,OK
219,"Jalan Dato Keramat, 10150 George Town, Pulau Pinang, Malaysia",5.4125569,100.3247849,GEOMETRIC_CENTER,ChIJ2ziG27jDSjARhoP6nQ0i4pE,"establishment,point_of_interest,shopping_mall",10150,M Mall O2O[141],1,OK
220,"Lengkok Mayang Pasir, Jalan Mayang Pasir1, Bandar Bayan Baru, 11950 Bayan Lepas, Penang, Malaysia",5.3252774,100.2849948,GEOMETRIC_CENTER,ChIJc9RdG2vASjARY_wOBCsNT_E,"establishment,point_of_interest",11950,One Precinct[142],1,OK
221,"George Town, Penang, Malaysia",5.414130699999999,100.3287506,APPROXIMATE,ChIJ1XsrrZfDSjARNLmpeFnkmiM,"locality,political",,Penang Plaza[143],1,OK
222,"144, Jalan Dato Keramat, George Town, 10150 George Town, Pulau Pinang, Malaysia",5.412176,100.3256387,ROOFTOP,ChIJx4NOur_DSjARgnX41oDHC9g,"establishment,point_of_interest,shopping_mall",10150,Penang Times Square,1,OK
223,"Prangin Mall, No 33, Jalan Dr Lim Chwee Leong, George Town, 10100 George Town, Pulau Pinang, Malaysia",5.414683,100.331112,ROOFTOP,ChIJtyM86gTDSjARnGWY72xSErw,"establishment,point_of_interest,shopping_mall",10100,Prangin Mall,1,OK
224,"Queensbay Mall, 100, Persiaran Bayan Indah, 11900 Bayan Lepas, Pulau Pinang, Malaysia",5.333177399999999,100.3066084,ROOFTOP,ChIJM9-dQfbASjARRVPI8nLX1Po,"establishment,point_of_interest,shopping_mall",11900,Queensbay Mall,1,OK
225,"8 Allstate Rd, Boston, MA 02118, USA",42.3267576,-71.0630645,ROOFTOP,ChIJZVUPeE9644kRm3iAoVhZfUw,"establishment,point_of_interest,shopping_mall",02118,Southbay Plaza[144],1,OK
226,"Jln Paya Terubung, Paya Terubong, 11500 Ayer Itam, Pulau Pinang, Malaysia",5.376936499999999,100.2753213,GEOMETRIC_CENTER,ChIJ9WVyrtnBSjARtiipj9BwCb0,"establishment,general_contractor,point_of_interest",11500,Sunway Valley City Mall[145] (Opening soon),1,OK
227,"Jalan Seri Tanjung Pinang 10470 Tanjong Tokong, Penang Malaysia, Seri Tanjung Pinang, Tanjung Tokong, Pulau Pinang, Malaysia",5.458031399999999,100.3133518,GEOMETRIC_CENTER,ChIJXb6HaCTDSjARjZhU6LZAiBA,"establishment,point_of_interest,shopping_mall",,Straits Quay,1,OK
228,"Lebuh Tunku Kudin 3, 11700 Gelugor, Pulau Pinang, Malaysia",5.378237599999999,100.3142186,GEOMETRIC_CENTER,ChIJ9QZIaHDBSjAR6cc61_RZX80,"establishment,point_of_interest,shopping_mall",11700,Udini Square,1,OK
229,"Lot No. 30908, Jalan Rozhan, Alma, 14000 Bukit Mertajam, Pulau Pinang, Malaysia",5.3210688,100.4775282,GEOMETRIC_CENTER,ChIJJ765yjbISjARftvwF1hc4Io,"establishment,point_of_interest,shopping_mall",14000,AEON Mall Bukit Mertajam[146],1,OK
230,"Bukit Mertajam, Penang, Malaysia",5.365458,100.4590091,APPROXIMATE,ChIJv5O4mOXISjARKozSIPcWMXY,"locality,political",,Bukit Mertajam Wholesale City[147],2,OK
231,,,,,,,,Design Village[148],0,ZERO_RESULTS
232,"2828, Jalan Baru, Bandar Perai Jaya, 13600 Perai, Pulau Pinang, Malaysia",5.3761839,100.4001367,ROOFTOP,ChIJA94VQ2PGSjARnuHtz6USRNE,"establishment,point_of_interest,shopping_mall",13600,Megamal Pinang[149],1,OK
233,"Pearl City, HI 96782, USA",21.3972222,-157.9733333,APPROXIMATE,ChIJF0thrGhnAHwRS1i9ROEUQds,"locality,political",96782,Pearl City Mall[150],1,OK
234,"Sunway Carnival Mall 3068, Jalan Todak Pusat Bandar Seberang Jaya, Seberang Jaya, 13700 Perai, Pulau Pinang, Malaysia",5.3985132,100.3980465,GEOMETRIC_CENTER,ChIJd4X4hs3FSjARHHCpdB9aIkA,"establishment,point_of_interest,shopping_mall",13700,Sunway Carnival Mall[151],1,OK
235,"1, 1, Hala Falim 6, Taman Falim, 30200 Ipoh, Perak, Malaysia",4.5815648,101.0608002,ROOFTOP,ChIJTVk6cY3ryjER5TKZzn54rho,"establishment,point_of_interest,shopping_mall",30200,AEON Midtown Falim at Falim IPOH,1,OK
236,"Station 18, 31650 Ipoh, Perak, Malaysia",4.543248,101.068835,APPROXIMATE,ChIJQVFbekvpyjERUSfx3OVcGvQ,"political,sublocality,sublocality_level_1",31650,�ON Mall Ipoh Station 18,1,OK
237,,,,,,,,�ON Mall Kinta City,0,ZERO_RESULTS
238,,,,,,,,�ON Mall Klebang,0,ZERO_RESULTS
239,,,,,,,,�ON Midtown Falim[152],0,ZERO_RESULTS
240,"24, Jalan Raja Ashman Shah, Kampung Kastam Greentown, 30450 Ipoh, Perak, Malaysia",4.6029193,101.0945349,ROOFTOP,ChIJj_FpyPTsyjER-kmUd0bHGkg,"establishment,point_of_interest,shopping_mall",30450,Angsana Ipoh Mall[153],1,OK
241,"105, Jalan Sultan Abdul Jalil, Pusat Perdagangan Greentown, 30450 Ipoh, Perak, Malaysia",4.597172,101.090072,ROOFTOP,ChIJexNEPDjtyjERgZb_jf0yDCE,"establishment,point_of_interest,shopping_mall",30450,IPOH Parade,1,OK
242,"Jalan Laxamana, 30300 Ipoh, Perak, Malaysia",4.597325,101.0813361,ROOFTOP,ChIJlVasIX3syjERYozWG5-Obcg,"establishment,point_of_interest,premise,shopping_mall",30300,Kompleks Yik Foong[154],1,OK
243,"Perak IT Mall, jalan, Tawas Idaman 2, taman tawas idaman, 30010 Ipoh, Perak, Malaysia",4.6606065,101.1096303,GEOMETRIC_CENTER,ChIJ68dFc5-TyjERRX8bpKia0lM,"establishment,point_of_interest,shopping_mall",30010,Perak IT Mall,1,OK
244,"1, Persiaran Lagun Sunway, Sunway City, 31150 Ipoh, Perak, Malaysia",4.6249236,101.1542368,ROOFTOP,ChIJ7Z19qqnyyjERjI16PdKY99M,"amusement_park,establishment,lodging,point_of_interest,tourist_attraction",31150,Sunway Tambun[155] (Opening in 2023),1,OK
245,"lot 312205, Jalan Batu Karang, Taman Kolej Perdana, 31900 Kampar, Perak, Malaysia",4.3280664,101.1469817,ROOFTOP,ChIJ9yvIo7viyjER849yN-rr1xk,"establishment,point_of_interest,shopping_mall",31900,Tin Village Mall,1,OK
246,,,,,,,,Kampar Terminal Mall,0,ZERO_RESULTS
247,"Seri Manjung, Perak, Malaysia",4.195868,100.664788,APPROXIMATE,ChIJ19-84B4tyzERxf5ePi6qY0s,"locality,political",,�ON Mall Seri Manjung],1,OK
248,"Taiping, Perak, Malaysia",4.851932,100.7416339,APPROXIMATE,ChIJ6b7ylVSuyjERph2aqAnUfYY,"locality,political",,�ON Mall Taiping[156],1,OK
249,"Jalan Tupai 3A Taiping Mall 33 Level 3A, 34000 Taiping, Perak, Malaysia",4.8497629,100.7425103,GEOMETRIC_CENTER,ChIJ6z-P8veuyjERbXm4cgBGUcY,"establishment,food,lodging,movie_theater,point_of_interest,restaurant,shopping_mall,store",34000,Taiping Mall[157],1,OK
250,"36, Jalan Istana Larut, 34000 Taiping, Perak, Malaysia",4.8658188,100.7312078,ROOFTOP,ChIJIRqTuJSuyjERGHkwbvpNT9I,"establishment,point_of_interest,shopping_mall",34000,Taiping Sentral Mall[158],1,OK
251,"Jalan Masak, 89000 Keningau, Sabah, Malaysia",5.334461,116.1528357,GEOMETRIC_CENTER,ChIJP4u9vhbvPDIR1GlIC1RyZi8,"establishment,point_of_interest,shopping_mall",89000,Keningau Mall[159],1,OK
252,"Harbour Square, Pusat Bandar Sandakan, 90000 Sandakan, Sabah, Malaysia",5.838768,118.1196785,GEOMETRIC_CENTER,ChIJ67qB8y7FODIRTSid5jAJRTY,"establishment,point_of_interest,shopping_mall",90000,Harbour Mall Sandakan[160],1,OK
253,"Eastern plaza, Hatirpoo1, Dhaka-111, ঢাকা 1205, Bangladesh",23.7435492,90.3918297,GEOMETRIC_CENTER,ChIJef75Yb64VTcR2l_FOMKIIp8,"establishment,point_of_interest,shopping_mall",1205,Eastern Plaza,1,OK
254,"Lot G333-G335 & G352-G354 Ground Floor One Borneo Hypermall Jalan Sulaman, 88400 Kota Kinabalu, Sabah, Malaysia",6.034971,116.1291922,GEOMETRIC_CENTER,ChIJvVRqQXtrOzIRFupvUkPRnMs,"establishment,point_of_interest,store",88400,1Borneo Hypermall,1,OK
255,"1, Lorong Centre Point, Pusat Bandar Kota Kinabalu, 88000 Kota Kinabalu, Sabah, Malaysia",5.9779246,116.0720678,ROOFTOP,ChIJkce5cZFpOzIRjIoLqYz9yDE,"establishment,point_of_interest,shopping_mall",88000,Centre Point Sabah[161],1,OK
256,,,,,,,,Grand Merdeka[162],0,ZERO_RESULTS
257,"KK Times Square, Phase 2, Off Coastal Highway, 88100 Kota Kinabalu, Sabah, Malaysia",5.9708621,116.0663544,ROOFTOP,ChIJGwRDk79pOzIRjM0ywHUkgDM,"establishment,point_of_interest,shopping_mall",88100,Imago KK Times Square[163],1,OK
258,"3, Jln Haji Saman, 88000 Kota Kinabalu, Sabah, Malaysia",5.9887991,116.078363,ROOFTOP,ChIJO-wTx4dpOzIRQuGKel6uXuE,"establishment,point_of_interest,shopping_mall",88000,Jesselton Residences (Jesselton Duty Free Mall),2,OK
259,"Lorong Karamunsing, Karamunsing, 88100 Kota Kinabalu, Sabah, Malaysia",5.970698899999999,116.0749876,GEOMETRIC_CENTER,ChIJn0XAjWNpOzIRfJFWAd7l1OQ,"establishment,point_of_interest,shopping_mall",88100,Karamunsing Complex[164],1,OK
260,"5th Floor Megalong Shopping Mall., Pekan Donggongon, 89500 Penampang, Sabah, Malaysia",5.9127259,116.1027167,GEOMETRIC_CENTER,ChIJ1ZskZ51oOzIRLZjgRkA4N3Q,"establishment,movie_theater,point_of_interest",89500,Mega Long Mall[165],1,OK
261,"Jalan Tun Fuad Stephen, 88000 Kota Kinabalu, Sabah, Malaysia",5.977028199999999,116.0689252,GEOMETRIC_CENTER,ChIJl47lj5NpOzIRWdYgNk33guk,"establishment,point_of_interest,shopping_mall",88000,Oceanus Waterfront Mall[166],1,OK
262,,,,,,,,Plaza Shell[167],0,ZERO_RESULTS
263,"1, Jalan Tun Fuad Stephens, Pusat Bandar Kota Kinabalu, 88000 Kota Kinabalu, Sabah, Malaysia",5.9869207,116.0772856,ROOFTOP,ChIJZzdhHIZpOzIRr_9CABl11w8,"establishment,point_of_interest,shopping_mall",88000,Suria Sabah[168],1,OK
264,"Sutera Avenue, 88100 Kota Kinabalu, Malaysia",5.9651955,116.0569458,GEOMETRIC_CENTER,ChIJCcjissVpOzIRHHYMC6Qjsjs,route,88100,Sutera Avenue,1,OK
265,"Wisma Merdeka, Pusat Bandar Kota Kinabalu, 88000 Kota Kinabalu, Sabah, Malaysia",5.985680899999999,116.0760034,ROOFTOP,ChIJx0YlTo9pOzIRqDvCkT9PFDI,"establishment,florist,point_of_interest,store",88000,Wisma Merdeka[169],1,OK
266,"Jln Lapan Belas, Pusat Bandar Kota Kinabalu, 88000 Kota Kinabalu, Sabah, Malaysia",5.982796,116.0736188,ROOFTOP,ChIJM-QZTI5pOzIRjr9n0ABjWcU,"establishment,premise",88000,KK Plaza,1,OK
267,,,,,,,,City Mall,0,ZERO_RESULTS
268,"ITCC, Jalan Pintas Penampang, 89500 Penampang, Sabah, Malaysia",5.9105558,116.0915985,GEOMETRIC_CENTER,ChIJ19aPpytmOzIROqzrsyYb1eg,"establishment,finance,point_of_interest,shopping_mall",89500,ITCC Penampang,1,OK
269,"Inanam, 88844 Kota Kinabalu, Sabah, Malaysia",5.993098799999999,116.1349755,GEOMETRIC_CENTER,ChIJB5WBsPhrOzIR8kPiSA3lje0,"establishment,point_of_interest,shopping_mall",88844,Inanam Mall,1,OK
270,,,,,,,,88 Mall,0,ZERO_RESULTS
271,"2021, Jalan Tuaran, Inanam, 88450 Kota Kinabalu, Sabah, Malaysia",6.0056832,116.1449846,ROOFTOP,ChIJ-1hlLGJpOzIRSNo7FWnw3es,"establishment,point_of_interest",88450,EG Mall Inanam,1,OK
272,"Jln Riverson 1, 88000 Kota Kinabalu, Sabah, Malaysia",5.968630399999999,116.0641532,GEOMETRIC_CENTER,ChIJpTn-msBpOzIRHUMFS1nwJWU,"establishment,point_of_interest,shopping_mall",88000,Riverson The Walk,1,OK
273,"Bintulu, Sarawak, Malaysia",3.171322,113.0419069,APPROXIMATE,ChIJ_dWdEhg0HDIRXIVjymU6CWw,"locality,political",,Bintulu Terminal Bus Station,1,OK
274,"445 Albee Square W, Brooklyn, NY 11201, USA",40.6909398,-73.9830629,ROOFTOP,ChIJo7JysLRbwokRGiWnsg65O_w,"establishment,point_of_interest,shopping_mall",11201,City Point Mall[170],1,OK
275,"Jln Abang Galau, Shahida Commercial Centre, 97000 Bintulu, Sarawak, Malaysia",3.1696009,113.0419616,GEOMETRIC_CENTER,ChIJJRGfEFzAHTIRSErGRB599Fs,"establishment,point_of_interest,store",97000,Li Hua Plaza,1,OK
276,,,,,,,,Medan Mall[171],0,ZERO_RESULTS
277,,,,,,,,Naim Street Mall[172],0,ZERO_RESULTS
278,"Commerce square Mall, Parkcity Commerce Square, 97000 Bintulu, Sarawak, Malaysia",3.1833544,113.039575,GEOMETRIC_CENTER,ChIJUVeI3lLAHTIRCSZqT6CDd84,"establishment,point_of_interest,shopping_mall",97000,Parkcity Commerce Square Mall[173],1,OK
279,,,,,,,,Parkcity Mall[174],0,ZERO_RESULTS
280,"Lot 4282, Jalan Tun Abdul Razak, 97000 Bintulu, Sarawak, Malaysia",3.1811596,113.034922,ROOFTOP,ChIJfV8Zdiin-zERfdb_PjWahro,"establishment,point_of_interest,shopping_mall",97000,The Spring Bintulu[175],1,OK
281,"97000 Bintulu, Sarawak, Malaysia",3.1976144,113.0881229,GEOMETRIC_CENTER,ChIJ_ZnV0zbBHTIROMVv66gSveo,"establishment,point_of_interest,shopping_mall",97000,Times Square Mega Mall[176],1,OK
282,"714, Jalan Tun Razak, 97000 Bintulu, Sarawak, Malaysia",3.2007132,113.0479617,ROOFTOP,ChIJp8F8YqDBHTIRPE9QOeK8I60,"establishment,point_of_interest,shopping_mall",97000,Boulevard Shopping Mall Bintulu,1,OK
283,"Kota Samarahan (Link), 94300 Kota Samarahan, Sarawak, Malaysia",1.4555349,110.4458866,GEOMETRIC_CENTER,ChIJfXcomDai-zERz-25oO6aCkI,"establishment,point_of_interest,shopping_mall",94300,Aiman Mall (@iman Mall)[177],1,OK
284,,,,,,,,Summer Mall[178],0,ZERO_RESULTS
285,"1 HSL Tower Lorong La Promenade 2, Kuching - Samarahan Expressway, 94300 Kota Samarahan, Sarawak, Malaysia",1.4961817,110.4016201,GEOMETRIC_CENTER,ChIJqaE7PTqh-zERjkGXDyapiDY,"establishment,point_of_interest,shopping_mall",94300,La Promenade Mall[179],1,OK
286,"Kuching, Sarawak, Malaysia",1.553504,110.3592927,APPROXIMATE,ChIJEb-MJYQH-zERcn6xGllXctM,"locality,political",,�ON Mall Kuching Central,1,OK
287,"30 Rue des Buissons, 95700 Roissy-en-France, France",48.9912088,2.5219686,ROOFTOP,ChIJ7xQr9KEV5kcRgvU1PBIoYBc,"establishment,point_of_interest,shopping_mall",95700,Aeroville Mall[180],1,OK
288,"Jalan Datuk Tawi Sli, Taman Seng Goon, 93250 Kuching, Sarawak, Malaysia",1.5096009,110.3359475,GEOMETRIC_CENTER,ChIJKx7fmlmn-zERwUOaYvQCrjI,"establishment,point_of_interest,shopping_mall",93250,Boulevard Shopping Mall,1,OK
289,"T20, 3rd Floor,Mall 2 City, One Megamall, 1, Jalan Song, Taman Phoning, 93350 Kuching, Sarawak, Malaysia",1.5207249,110.3544307,ROOFTOP,ChIJV2aCyhSn-zER02e58DpADVM,"establishment,point_of_interest,shopping_mall",93350,CityOne Megamall,1,OK
290,"4050 Tangle Dr # A, Richmond, VA 23228, USA",37.6217817,-77.5014515,ROOFTOP,ChIJy_skpbsVsYkRWGXlEA9vHQw,"establishment,point_of_interest",23228,Crown Square,1,OK
291,"Jalan Semariang, Petra Jaya, 93050 Kuching, Sarawak, Malaysia",1.5821345,110.3314548,GEOMETRIC_CENTER,ChIJZyffXjqp-zERpiMsP8Kcews,"establishment,point_of_interest,shopping_mall",93050,Eco Mall,1,OK
292,"131 King William St, Adelaide SA 5000, Australia",-34.9262881,138.5995003,ROOFTOP,ChIJzbhu99fOsGoRLsC5B_0Lu_o,"bar,establishment,point_of_interest",5000,Electra House,1,OK
293,"Lot 4547,Block 233,KNLD, Jalan Penrissen, 6th Mile, 93250 Kuching, Sarawak, Malaysia",1.4847492,110.3332518,GEOMETRIC_CENTER,ChIJKTb6OxWh-zERqTu8tWZFcqI,"establishment,point_of_interest,shopping_mall",93250,Farley Mall,1,OK
294,"93250 Kuching, Sarawak, Malaysia",1.5054878,110.2522746,GEOMETRIC_CENTER,ChIJOch6lFsJ-zERRTmRZkxKNCM,"establishment,point_of_interest,shopping_mall",93250,Genesis Parade,1,OK
295,"Lorong Lapangan Terbang 2, Green Heights, 93250 Kuching, Sarawak, Malaysia",1.502015,110.3464267,GEOMETRIC_CENTER,ChIJbTPON0yn-zERgUx0g5PW0-s,"establishment,point_of_interest,shopping_mall",93250,Green Heights Mall,1,OK
296,"2, Jalan Datuk Abang Abdul Rahim, 93450 Kuching, Sarawak, Malaysia",1.5529231,110.3675092,ROOFTOP,ChIJu75w5ben-zERSBnbU8o-_ZE,"establishment,point_of_interest",93450,Hock Lee Centre (Under renovation),1,OK
297,,,,,,,,Hopoh Shopping Centre,0,ZERO_RESULTS
298,"Lot 2 ground floor 6th mile, Jalan Penrissen, Kuching Sentral, 93250 Kuching, Sarawak, Malaysia",1.481769,110.331728,GEOMETRIC_CENTER,ChIJaxg4XaCg-zERJUf8IW8YmgY,"establishment,point_of_interest,shopping_mall,store",93250,Kuching Sentral,1,OK
299,"41, Jalan P. Ramlee, 93400 Kuching, Sarawak, Malaysia",1.5550688,110.33988,ROOFTOP,ChIJrYkW_fKn-zERFX83HXrGMmc,"establishment,point_of_interest,shopping_mall",93400,Majma Mall,1,OK
300,"73, second floor, Lorong Anggerik 7, Taman Matang Jaya, 93050 Kuching, Sarawak, Malaysia",1.5745264,110.2960721,ROOFTOP,ChIJnRQszNkH-zERbcIXvYrntXw,"establishment,point_of_interest,shopping_mall",93050,Matang Mall,1,OK
301,"55, Lor Moyan Utama 1, 93250 Kuching, Sarawak, Malaysia",1.4991868,110.251008,ROOFTOP,ChIJOVsCe-IL-zERtJbvZiNtCQI,"establishment,point_of_interest,shopping_mall",93250,Moyan Square,1,OK
302,,,,,,,,OneJaya Lifestyle Mall,0,ZERO_RESULTS
303,"Lot 14665, Block 11, Jalan Stutong, 93350 Kuching, Sarawak, Malaysia",1.5064918,110.3745468,ROOFTOP,ChIJXRDckiin-zERbiGD1TSr1ug,"electronics_store,establishment,point_of_interest,shopping_mall,store",93350,One TJ ICT Shopping Complex,1,OK
304,"Batu Kawah New Township, Jalan Batu Kawa, Bandar Baru Batu Kawa, 93250 Kuching, Sarawak, Malaysia",1.514467,110.304654,GEOMETRIC_CENTER,ChIJPdV-8JQJ-zERaH320gmkz5U,"establishment,lodging,point_of_interest",93250,Papillon Street Mall,1,OK
305,"88, Pearl Street, 93000 Kuching, Sarawak, Malaysia",1.5585742,110.344017,ROOFTOP,ChIJKXOlDu6n-zERSKBAccqMThA,"establishment,point_of_interest,shopping_mall",93000,Plaza Merdeka Shopping Center,1,OK
306,"Jalan Tunku Abdul Rahman, 93100 Kuching, Sarawak, Malaysia",1.557896,110.351547,GEOMETRIC_CENTER,ChIJxTI1fumn-zERWFarXNd_Ggk,"establishment,point_of_interest,shopping_mall",93100,Riverside Shopping Complex,1,OK
307,"Jalan Tunku Abdul Rahman, 93100 Kuching, Sarawak, Malaysia",1.5578172,110.3534262,GEOMETRIC_CENTER,ChIJ1acsHuqn-zERfcZi5B8SikU,"atm,establishment,finance,point_of_interest",93100,Sarawak Plaza,1,OK
308,"64, Jalan Simpang Tiga, Kampung Kenyalang Park, 93300 Kuching, Sarawak, Malaysia",1.5360203,110.3557502,ROOFTOP,ChIJ-51uE6Cn-zERdPThflnpP_A,"establishment,point_of_interest,shopping_mall",93300,ST3 Shopping Mall,1,OK
309,"93350, Jln Bayor Bukit, Muara Tebas, 93350 Kuching, Sarawak, Malaysia",1.5322445,110.3758948,ROOFTOP,ChIJB0xXqQGn-zERi8wDDyO5Wts,"establishment,point_of_interest,shopping_mall",93350,Tabuan Plaza,1,OK
310,"304, Persiaran, Kampung Kenyalang Park, 93300 Kuching, Sarawak, Malaysia",1.5355458,110.3582016,GEOMETRIC_CENTER,ChIJNfuDY6Cn-zERvKQMPnRpF04,"establishment,point_of_interest,shopping_mall",93300,The Spring Shopping Mall,1,OK
311,"18, Jalan Tunku Abdul Rahman, 93100 Kuching, Sarawak, Malaysia",1.5572825,110.3536731,ROOFTOP,ChIJMxI1GOqn-zERe5fd5SEvu3M,"establishment,point_of_interest,shopping_mall",93100,Tun Jugah Mall,1,OK
312,"Ground Floor, Jalan Wan Alwi, Taman Supreme, 93350 Kuching, Sarawak, Malaysia",1.5277544,110.3697119,ROOFTOP,ChIJSQayGQWn-zERvJDO9nzBZsE,"clothing_store,establishment,food,grocery_or_supermarket,movie_theater,point_of_interest,shopping_mall,store",93350,Vivacity Megamall,1,OK
313,"Wisma Saberkas, 3, Jalan Tun Abang Haji Openg, Kuching, Sarawak, Malaysia",1.5371692,110.3401903,ROOFTOP,ChIJN6tB-YKn-zER0w8kMhvUhxM,premise,,Wisma Saberkas,1,OK
314,"Wisma Satok, Jalan Satok, 93400 Kuching, Sarawak, Malaysia",1.5535837,110.3351635,ROOFTOP,ChIJS7Wvy_Sn-zER2ogeJaGRwL0,premise,93400,Wisma Satok,1,OK
315,,,,,,,,Wisma Sentosa,0,ZERO_RESULTS
316,"Jln Bayor Bukit, Tabuan Jaya, 93350 Kuching, Sarawak, Malaysia",1.5274726,110.3753701,GEOMETRIC_CENTER,ChIJcRhDGQOn-zERMFcnlsTL3hc,"establishment,point_of_interest,shopping_mall",93350,Wisma Wan,1,OK
317,"Limbang, Sarawak, Malaysia",4.755032,115.0081459,APPROXIMATE,ChIJ-yp8JCtvGDIRCG6oRTl_sZo,"locality,political",,Limbang Plaza,1,OK
318,"Lot 1264, Jalan Miri Pujut, Bintang Jaya, 98000 Miri, Sarawak, Malaysia",4.3970478,113.9932847,ROOFTOP,ChIJwU1sCCxPHzIR38IwE7G8EgQ,"establishment,point_of_interest,shopping_mall",98000,Bintang Megamall[181],1,OK
319,"2528, Jalan Boulevard 1b, Boulevard Commercial Centre, 98000 Miri, Sarawak, Malaysia",4.415000000000001,114.0130556,ROOFTOP,ChIJISnM_-dOHzIRQr_Q1a3yK7Q,"establishment,point_of_interest,shopping_mall",98000,Boulevard Shopping Mall Miri,1,OK
320,"3451 Dogwood Rd, El Centro, CA 92243, USA",32.7630397,-115.5306534,ROOFTOP,ChIJTb53w41m14ARxUrvxyP1YIg,"atm,establishment,finance,point_of_interest,shopping_mall",92243,Imperial Mall,1,OK
321,"Pelita Commercial Centre, 98000 Miri, Sarawak, Malaysia",4.4051808,114.0020905,GEOMETRIC_CENTER,ChIJW_Ks79dOHzIRsKEfnnwKuFI,"establishment,point_of_interest",98000,Miri Plaza,1,OK
322,"Jalan Pasar Lutong, Lutong, 98000 Miri, Sarawak, Malaysia",4.4707827,114.0106985,GEOMETRIC_CENTER,ChIJTazKyilOHzIR6R1ymSgnA_Q,"establishment,point_of_interest,shopping_mall",98000,MYY Mall,1,OK
323,"Permaisuri Imperial City Mall, Jalan Merpati, 98000 Miri, Sarawak, Malaysia",4.4005194,113.9906578,GEOMETRIC_CENTER,ChIJk_8V7C1PHzIR2EQYX_uYF6I,"establishment,point_of_interest,shopping_mall",98000,Permaisuri Imperial City Mall,1,OK
324,"Sublot 261, 1st Floor Permy Mall, Bandar Baru Permyjaya, 98000 Miri, Sarawak, Malaysia",4.4500689,114.0383533,GEOMETRIC_CENTER,ChIJNQ23dAVOHzIR0_0e66Y2yEE,"establishment,point_of_interest,shopping_mall",98000,Permy Mall,1,OK
325,"Jalan Merbau, 98000 Miri, Sarawak, Malaysia",4.3974004,113.9873538,GEOMETRIC_CENTER,ChIJ1xpDyjJPHzIR1PGW-L9My0c,"establishment,point_of_interest,shopping_mall",98000,Soon Hup Tower,1,OK
326,"Unit 2-19, 2nd Floor, Wisma Pelita Tunku, Jalan Padang, 98000 Miri, Sarawak, Malaysia",4.3906043,113.9875761,GEOMETRIC_CENTER,ChIJC4GnUM5IHzIReo4WAdETfIg,"establishment,point_of_interest",98000,Pelita Tunku,1,OK
327,"Jl. M. T. Haryono No.8, Pusat Ps., Kec. Medan Kota, Kota Medan, Sumatera Utara 20212, Indonesia",3.58767,98.6867939,ROOFTOP,ChIJfUn_3rYxMTARVw_rYkxCvhk,"establishment,point_of_interest,shopping_mall",20212,Medan Mall,1,OK
328,"Whitehall, OH 43213, USA",39.95660000000001,-82.8754,GEOMETRIC_CENTER,ChIJC6kM-O9iOIgR3zO4d0Gs4XY,"establishment,point_of_interest,shopping_mall",43213,Eastern Mall,1,OK
329,"Sri Aman, Sarawak, Malaysia",1.237031,111.462079,APPROXIMATE,ChIJx5cJE386-TERPYJLLxsOBb4,"locality,political",,Plaza Simanggang,1,OK
330,,,,,,,,Delta Mall,0,ZERO_RESULTS
331,"Jl. M. T. Haryono No.8, Pusat Ps., Kec. Medan Kota, Kota Medan, Sumatera Utara 20212, Indonesia",3.58767,98.6867939,ROOFTOP,ChIJfUn_3rYxMTARVw_rYkxCvhk,"establishment,point_of_interest,shopping_mall",20212,Medan Mall,1,OK
332,"Sarawak, Malaysia",1.5532783,110.3592127,APPROXIMATE,ChIJR25LAQ8q9jERABP-xW6lWvI,"administrative_area_level_1,political",,Sarawak House Shopping Complex,1,OK
333,"Jalan Tunku Abdul Rahman, Pekan Sibu, 96000 Sibu, Sarawak, Malaysia",2.3047556,111.8637079,GEOMETRIC_CENTER,ChIJoZWYO8GB9zERZOSCHnj7MrY,"establishment,point_of_interest,shopping_mall",96000,Star Mega Mall,1,OK
334,"Jalan Ling Kai Cheng, Pekan Sibu, 96000 Sibu, Sarawak, Malaysia",2.3255933,111.8538207,GEOMETRIC_CENTER,ChIJAbr87ot_9zERov8uxMqoRug,"establishment,point_of_interest,shopping_mall",96000,The Swan Square,1,OK
335,"Wisma Sanyan, Pekan Sibu, 96000 Sibu, Sarawak, Malaysia",2.2905456,111.8253011,ROOFTOP,ChIJhX-1vNt_9zERgTJ41L75uWk,premise,96000,Wisma Sanyan,1,OK
336,"Ampang Jaya, Selangor, Malaysia",3.149099,101.7624521,APPROXIMATE,ChIJxRJtZBE3zDERwXp6du_3ja8,"locality,political",,Ampang Point[182],1,OK
337,"G23A, GROUND FLOOR, AXIS ATRIUM SHOPPING MALL, Jalan Cempaka, Taman Cempaka, 68000 Ampang Jaya, Selangor, Malaysia",3.136544,101.7472814,GEOMETRIC_CENTER,ChIJqdxcUVk2zDERTdjv7tDahDE,"establishment,point_of_interest,store",68000,Axis Atrium,1,OK
338,"Jalan Dagang 5, Taman Dagang, 68000 Ampang, Selangor, Malaysia",3.1469408,101.7557673,ROOFTOP,ChIJxV2O5_42zDERDLZBbx_QiE8,"establishment,premise",68000,Galaxy Ampang[183],1,OK
339,"Pandan Indah, Kuala Lumpur, Selangor, Malaysia",3.133892,101.7516751,APPROXIMATE,ChIJl0jdhl82zDERxwdeiUsYbds,"political,sublocality,sublocality_level_1",,Pandan Capital Mall[184],1,OK
340,,,,,,,,Spectrum Shopping Mall[185],0,ZERO_RESULTS
341,"Bangi Gateway, Seksyen 15, 43650 Bandar Baru Bangi, Selangor, Malaysia",2.9331218,101.765914,GEOMETRIC_CENTER,ChIJESPI7RLJzTEREW49D-1gnO0,route,43650,Bangi Gateway[186],1,OK
342,"Jalan Wawasan, Kawasan Institusi Bangi, 43009 Kajang, Selangor, Malaysia",2.9795931,101.7386002,GEOMETRIC_CENTER,ChIJMTcVN0DKzTERc3NVDHww7sU,"establishment,point_of_interest,shopping_mall",43009,De Centrum Mall,1,OK
343,"Kompleks EVO, jalan Medan 2D, Seksyen 9, 43650 Bandar Baru Bangi, Selangor, Malaysia",2.9627284,101.7554702,GEOMETRIC_CENTER,ChIJ0YrAtNLLzTERiE7ySrs-oPs,"establishment,point_of_interest,shopping_mall",43650,Evo Bangi [187],1,OK
344,,,,,,,,�ON Cheras Selatan Shopping Centre,0,ZERO_RESULTS
345,"Jalan Temenggung 21/9, Bandar Mahkota Cheras, 43200 Cheras, Selangor, Malaysia",3.0549073,101.7871801,GEOMETRIC_CENTER,ChIJTWnJM5g0zDER4f59d-KJlmk,"establishment,point_of_interest,shopping_mall",43200,BMC Mall (recently AEON Makhota Cheras)[188],2,OK
346,"Persiaran Multimedia, Cyberjaya, 63000 Cyberjaya, Selangor, Malaysia",2.9220548,101.650968,GEOMETRIC_CENTER,ChIJn_QIW_u2zTERR19CqNnhQCA,"establishment,point_of_interest,shopping_mall",63000,D'Pulze Shopping Centre[189],1,OK
347,"Persiaran Sepang, Cyber 11, 63000 Cyberjaya, Selangor, Malaysia",2.9222215,101.6344813,GEOMETRIC_CENTER,ChIJyxGIeNu2zTERFbLcWSCIHKA,"establishment,point_of_interest,shopping_mall",63000,Gem In Mall[190],1,OK
348,"Shaftsbury Square, 63000 Cyberjaya, Selangor, Malaysia",2.922597,101.6618951,APPROXIMATE,ChIJG3xmI1a2zTERGiNTMW1dQS8,"political,sublocality,sublocality_level_1",63000,Shaftsbury Square Cyberjaya[191],1,OK
349,"8, Jalan Jelok Indah 9, Taman Jelok Indah, 43000 Kajang, Selangor, Malaysia",2.9916367,101.793722,ROOFTOP,ChIJCRzZkH3MzTER3oaPdPiLtVQ,"establishment,point_of_interest,shopping_mall",43000,Metro Point Kajang[192],1,OK
350,"4, Jln Tun Abdul Aziz, Seksyen 1, 43000 Kajang, Selangor, Malaysia",2.991358,101.7892036,ROOFTOP,ChIJ1d1T94LLzTERtdPxjbCKA4I,"establishment,point_of_interest,shopping_mall",43000,Plaza Metro Kajang[193],1,OK
351,"Klang, Selangor, Malaysia",3.044917,101.4455621,APPROXIMATE,ChIJz4H-T0xTzDERFEXVL3f1Yes,"locality,political",,�ON Bukit Tinggi Shopping Centre at Klang,1,OK
352,"Persiaran Bukit Raja 2, Bandar Baru Klang, 41150 Klang, Selangor, Malaysia",3.0600703,101.4722809,GEOMETRIC_CENTER,ChIJ-RCB3RtTzDERgjFNARnOeLg,"establishment,point_of_interest,shopping_mall",41150,�ON Mall Bukit Raja,1,OK
353,"No 1, Persiaran Batu Nilam 1/Ks6, Bandar Bukit Tinggi 2, 41200 Klang, Selangor, Malaysia",2.9942378,101.4443991,GEOMETRIC_CENTER,ChIJVWTHIH2szTERTPzLGKUrqp8,"establishment,health,pharmacy,point_of_interest,store",41200,�ON Mall Bukit Tinggi,1,OK
354,,,,,,,,Centro Mall[194],0,ZERO_RESULTS
355,"Jalan Klang Sentral, Klang Sentral, Meru, 41050 Klang, Selangor, Malaysia",3.107785,101.4393626,GEOMETRIC_CENTER,ChIJTdnufvlTzDERZQvBWAsIeiQ,"establishment,point_of_interest,shopping_mall",41050,Galleri Klang Sentral,1,OK
356,"Jalan Kasuarina 1, Bandar Botanik, 41200 Klang, Selangor, Malaysia",2.9907943,101.449589,GEOMETRIC_CENTER,ChIJAe8qC2OszTERJkZ2cS77y9Q,"establishment,point_of_interest,shopping_mall",41200,GM Klang Wholesale City[195],1,OK
357,"23094 Perdido Beach Blvd, Orange Beach, AL 36561, USA",30.257597,-87.630054,ROOFTOP,ChIJf6SKkzwEmogRDPEUqGu7wwU,"establishment,point_of_interest,real_estate_agency",36561,Harbour Place,1,OK
358,"No. 2112, KM2, Jalan Meru, Kawasan 17, 41050 Klang, Selangor, Malaysia",3.0637778,101.4536951,ROOFTOP,ChIJd3HmqG1TzDER96-aEJZcJME,"establishment,point_of_interest,shopping_mall",41050,Klang Parade[196],1,OK
359,,,,,,,,KSL Esplanade Mall[197] (Opening in 2022),0,ZERO_RESULTS
360,"Jalan Raja Hassan, Kawasan 18, 41300 Klang, Selangor, Malaysia",3.048351,101.4473993,GEOMETRIC_CENTER,ChIJQcIJ_kRTzDER2eg--Tj2UgE,"establishment,point_of_interest,shopping_mall",41300,Shaw Centrepoint[198],1,OK
361,,,,,,,,Central Plaza[199],0,ZERO_RESULTS
362,"City Centre, 1, Lebuh Bandar Utama, Bandar Utama, 47800 Petaling Jaya, Selangor, Malaysia",3.1489718,101.6161233,ROOFTOP,ChIJL-Qvn9JOzDERBLmeTTrrgf0,"establishment,point_of_interest,shopping_mall",47800,1 Utama Shopping Centre in Petaling Jaya,1,OK
363,"City Centre, 1, Lebuh Bandar Utama, Bandar Utama, 47800 Petaling Jaya, Selangor, Malaysia",3.1489718,101.6161233,ROOFTOP,ChIJL-Qvn9JOzDERBLmeTTrrgf0,"establishment,point_of_interest,shopping_mall",47800,1 Utama,1,OK
364,"3, Jalan SS 20/27, Damansara Intan, 47400 Petaling Jaya, Selangor, Malaysia",3.1304749,101.6269411,ROOFTOP,ChIJQd-9d0hJzDER65xpZRO9F6c,"establishment,point_of_interest,shopping_mall",47400,3 Damansara Shopping Mall,1,OK
365,"18, Jalan, Persiaran Barat, Seksyen 52 Petaling Jaya, 46050 Petaling Jaya, Selangor, Malaysia",3.105097,101.646955,ROOFTOP,ChIJwVTE-9pLzDERQ5LnvPeHUUo,"establishment,point_of_interest,shopping_mall",46050,Amcorp Mall,1,OK
366,"Jalan SS 22/23, Damansara Jaya, 47400 Petaling Jaya, Selangor, Malaysia",3.1270963,101.6165176,GEOMETRIC_CENTER,ChIJ8bk3pUxJzDERrFejLGpKfIg,"establishment,point_of_interest,shopping_mall",47400,Atria Shopping Gallery[200],1,OK
367,"8, Jalan PJU 8/1, Damansara Perdana, 47820 Petaling Jaya, Selangor, Malaysia",3.1663882,101.6155812,ROOFTOP,ChIJSSPTRTNPzDERMd8kDLrK8VI,"establishment,point_of_interest",47820,Empire City Mall,1,OK
368,"D - 2, 7, Jalan PJU 1a/4, Ara Damansara, 47301 Petaling Jaya, Selangor, Malaysia",3.1100758,101.5865602,ROOFTOP,ChIJpbkDxCZMzDERkKzyJKOd8Ko,"establishment,point_of_interest,shopping_mall",47301,Evolve Concept Mall[201],1,OK
369,"2, Jalan PJU 7/2, Mutiara Damansara, 47800 Petaling Jaya, Selangor, Malaysia",3.1571794,101.6128229,ROOFTOP,ChIJlSyJwCtPzDERZF0AU9hYoL8,"establishment,furniture_store,home_goods_store,point_of_interest,shopping_mall,store",47800,IPC Shopping Centre,1,OK
370,"72A, Jln Profesor Diraja Ungku Aziz, Seksyen 13, 46200 Petaling Jaya, Selangor, Malaysia",3.1184035,101.6354371,ROOFTOP,ChIJe9aC1F1JzDERgZCaZVmX0fc,"establishment,point_of_interest,shopping_mall",46200,Jaya One,1,OK
371,"Jalan 14/17, Seksyen 14, 46100 Petaling Jaya, Selangor, Malaysia",3.1091099,101.637092,GEOMETRIC_CENTER,ChIJL1DQlOBLzDERdyz6BPjUSxY,"establishment,food,grocery_or_supermarket,point_of_interest,shopping_mall,store,supermarket",46100,Jaya Shopping Centre,1,OK
372,"1, Jalan SS 7/26a, Ss 7, 47301 Petaling Jaya, Selangor, Malaysia",3.1051171,101.5959701,ROOFTOP,ChIJDZNKSRhMzDERhJVpBl2HvHU,"establishment,point_of_interest,shopping_mall",47301,Paradigm Mall Petaling Jaya,1,OK
373,"No. 2, Jalan PJU 5/14, Kota Damansara, 47810 Petaling Jaya, Selangor, Malaysia",3.1508855,101.5917163,ROOFTOP,ChIJMaQVaOBOzDER9CQ0pux-nz4,"establishment,point_of_interest,shopping_mall",47810,Sunway Giza[202],1,OK
374,"Lot G-01 ;; 1, 01, Jalan PJU 7/3, Mutiara Damansara, 47820 Petaling Jaya, Selangor, Malaysia",3.1579199,101.6120082,ROOFTOP,ChIJL2McUClPzDERAKfQzz0msNs,"establishment,point_of_interest,shopping_mall",47820,The Curve,1,OK
375,,,,,,,,The Starling[203],0,ZERO_RESULTS
376,"Unit CC, 29 No, 2A, Persiaran Surian, Tropicana Indah, 47810 Petaling Jaya, Selangor, Malaysia",3.1489235,101.5950226,ROOFTOP,ChIJURCa6nxPzDERIbpqvPUmBMw,"establishment,point_of_interest,shopping_mall",47810,Tropicana Gardens Mall[204],1,OK
377,"Persiaran Anggun, 48000 Rawang, Selangor, Malaysia",3.3234398,101.541222,GEOMETRIC_CENTER,ChIJ0xeC-NlCzDERcJK6IIeTnt8,route,48000,�ON Rawang Anggun Shopping Centre,1,OK
378,,,,,,,,Selayang Mall[205],0,ZERO_RESULTS
379,"Jln Lingkaran Tengah 2, Taman Selayang Jaya, 68100 Batu Caves, Selangor, Malaysia",3.2408435,101.6483265,GEOMETRIC_CENTER,ChIJG7bWIPBGzDERBpPcVFu_oXk,"establishment,point_of_interest,shopping_mall",68100,Selayang Capitol Complex[206],1,OK
380,"B-07-L1 Block B, Jln Ecohill 1/2, Setia EcoHill, 43500 Semenyih, Selangor, Malaysia",2.9245756,101.8543046,GEOMETRIC_CENTER,ChIJ10YMNEXOzTERYqwbGcqTSaw,"establishment,general_contractor,point_of_interest",43500,Ecohill Walk Mall[207],1,OK
381,"Lbh KLIA Extension, 43900 Klia, Selangor, Malaysia",2.7440889,101.6856391,GEOMETRIC_CENTER,ChIJT9FTwpW_zTERH9f-OJEKg0Q,"establishment,point_of_interest,shopping_mall",43900,Gateway@klia2[208],1,OK
382,"Persiaran Komersial, KLIA, 64000 Sepang, Selangor, Malaysia",2.7794185,101.6768964,ROOFTOP,ChIJDXMXsz2_zTERvT6djfbjm9w,"establishment,point_of_interest,shopping_mall",64000,Mitsui Outlet Park KLIA Sepang[209],1,OK
383,"Taman Equine, 43300 Seri Kembangan, Selangor, Malaysia",3.003022000000001,101.679111,APPROXIMATE,ChIJ-eiR9g61zTERdzia4GVdpQY,"political,sublocality,sublocality_level_1",43300,�ON Taman Equine Shopping Centre,1,OK
384,"Lot No. S2.72(D2), 2nd Floor, South City Plaza Persiaran Serdang Perdana Seksyen 1, Taman Serdang Perdana, 43300 Seri Kembangan, Selangor, Malaysia",3.028645,101.709432,GEOMETRIC_CENTER,ChIJp2lg1avKzTERSIwZUO-zjaU,"establishment,point_of_interest,shopping_mall",43300,South City Plaza[210],1,OK
385,,,,,,,,The Mines[211],0,ZERO_RESULTS
386,"Management Office, Unit T2-3A-3 & Unit T2-3A-3A level 3A IOI City Tower Two Lebuh IRC, Ioi Resort, 62502 Putrajaya, Selangor, Malaysia",2.9706561,101.7136778,GEOMETRIC_CENTER,ChIJQWjHIQzKzTERgAEUgEQ4mCw,"establishment,point_of_interest,shopping_mall",62502,IOI City Mall,1,OK
387,"Shah Alam, Selangor, Malaysia",3.073281,101.518461,APPROXIMATE,ChIJx70qk4tNzDERxZGwq4XgZW4,"locality,political",,�ON Mall Shah Alam,1,OK
388,"no 1-3 first floor UTC Selangor/Anggerik Mall, Seksyen 14, 40000 Shah Alam, Selangor, Malaysia",3.0712092,101.5199959,GEOMETRIC_CENTER,ChIJrbQvOIFSzDERMQTWyIJi8Nw,"establishment,point_of_interest",40000,Anggerik Mall[212],1,OK
389,"No. 1, Persiaran Multimedia, Seksyen 7, Jalan Plumbum 7/102, I-City, 40000 Shah Alam, Selangor, Malaysia",3.0624082,101.4817408,GEOMETRIC_CENTER,ChIJxV2SUPtSzDERQ4GW7znn1UY,"establishment,point_of_interest,shopping_mall",40000,Central i-City[213],1,OK
390,"1, Jln Serai Wangi M 16/M, Alam Avenue, 40000 Shah Alam, Selangor, Malaysia",3.0569058,101.4897535,ROOFTOP,ChIJNaLb6edSzDERj3ZtohlkhuU,"establishment,point_of_interest,shopping_mall",40000,IRDKL Mall[214],1,OK
391,"Persiaran Tasik, Seksyen 14, 40000 Shah Alam, Selangor, Malaysia",3.0706628,101.5172543,GEOMETRIC_CENTER,ChIJQ435kYZSzDERvs0A5EFX4Xs,"establishment,point_of_interest,shopping_mall",40000,Kompleks PKNS Shah Alam[215],1,OK
392,"7, Jalan Pinang A 18/A, Seksyen 18, 40200 Shah Alam, Selangor, Malaysia",3.0436554,101.516821,ROOFTOP,ChIJka7DoAJTzDERZO_3XaYyHms,"establishment,point_of_interest,shopping_mall",40200,Ole-Ole Shopping Centre[216],1,OK
393,"2, Jl. Tengku Ampuan Zabedah E 9/E, Seksyen 9, 40100 Shah Alam, Selangor, Malaysia",3.0843375,101.5233174,ROOFTOP,ChIJcfEk6RFTzDERL5TjHL_r0nw,"establishment,point_of_interest,shopping_mall",40100,Plaza Shah Alam[217],1,OK
394,"Jalan Majlis, Seksyen 14, 40000 Shah Alam, Selangor, Malaysia",3.0740457,101.5171885,GEOMETRIC_CENTER,ChIJNy-J1MxTzDERrouDLlllAdA,"establishment,point_of_interest,shopping_mall",40000,Plaza Alam Sentral,1,OK
395,"14/9, Jalan Perbadanan, Seksyen 14, 40000 Shah Alam, Selangor, Malaysia",3.0717582,101.5183003,ROOFTOP,ChIJU93Z2oZSzDERszvBCDApVBo,"establishment,point_of_interest,shopping_mall",40000,SACC Mall Shah Alam[218],1,OK
396,"Persiaran Setia Dagang, Setia Alam, 40170 Shah Alam, Selangor, Malaysia",3.1094722,101.4602182,GEOMETRIC_CENTER,ChIJU_KM2n9SzDERdHKiiYBVsyM,"establishment,point_of_interest,shopping_mall",40170,Setia City Mall[219],1,OK
397,"No.3, Jln Zuhal U5/177, Bandar Pinggiran Subang, 40150 Shah Alam, Selangor, Malaysia",3.1546675,101.5537169,ROOFTOP,ChIJS-J9QLNPzDERY3uv7tysDw0,"establishment,point_of_interest,shopping_mall",40150,Star Avenue Lifestyle Mall[220],1,OK
398,"B1, 13-01, Persiaran Pasak Bumi, Bukit Jelutong, 40150 Shah Alam, Selangor, Malaysia",3.1114404,101.5522942,ROOFTOP,ChIJTYx-bnFNzDERLgZPqUXiw1k,"establishment,point_of_interest,shopping_mall",40150,Space U8 Mall,1,OK
399,"1, Persiaran Kewajipan, Usj 1, 47600 Subang Jaya, Selangor, Malaysia",3.0580052,101.5925509,ROOFTOP,ChIJF_wzeSBNzDERefV2CNjNvUQ,"establishment,point_of_interest,shopping_mall",47600,Da Men Mall[221],1,OK
400,"Main Entrance, Jalan SS 16/1, Ss 16, 47500 Subang Jaya, Selangor, Malaysia",3.0817783,101.5828038,GEOMETRIC_CENTER,ChIJ1dO4iFpMzDERNDCXYKfbsSg,"establishment,point_of_interest,shopping_mall",47500,Empire Shopping Gallery,1,OK
401,"23, Lebuhraya Damansara - Puchong, Bandar Puchong Jaya, 47100 Puchong, Selangor, Malaysia",3.0449441,101.6180882,ROOFTOP,ChIJY59uVFhLzDERnI07aUhL3VY,"establishment,premise",47100,IOI Mall Puchong Jaya,1,OK
402,"43-1, Jalan Bandar 1, Pusat Bandar Puchong, 47100 Puchong, Selangor, Malaysia",3.0349072,101.6174684,ROOFTOP,ChIJjQoIN1VLzDER4HIaxSiSsxI,"establishment,hair_care,point_of_interest",47100,M Square Puchong [222],1,OK
403,"2800 N Main St, Santa Ana, CA 92705, USA",33.7752056,-117.8704169,ROOFTOP,ChIJBVVt3M7Z3IARJ6df5O1VA5c,"establishment,point_of_interest,shopping_mall",92705,Main Place Mall [223],1,OK
404,"Jalan USJ 25/1, One City, 47650 Subang Jaya, Selangor, Malaysia",3.0212221,101.5803981,GEOMETRIC_CENTER,ChIJtfulXJZMzDERXJS9tSOaiGM,"establishment,point_of_interest,real_estate_agency,shopping_mall",47650,One City Mall[224],1,OK
405,"Jla SS 15/4G, Ss 15, 47500 Subang Jaya, Selangor, Malaysia",3.0774824,101.5866001,GEOMETRIC_CENTER,ChIJ_VJGQVlMzDERCBLSw3Cupz4,"establishment,food,point_of_interest,restaurant,shopping_mall",47500,SS15 Courtyard[226],1,OK
406,"Jalan Kemajuan Subang, Ss 16, 47500 Subang Jaya, Selangor, Malaysia",3.0814893,101.5851028,GEOMETRIC_CENTER,ChIJH4fKE1tMzDERdH2TyRMZgSY,"establishment,point_of_interest,shopping_mall",47500,Subang Parade,1,OK
407,"3, Jalan PJS 11/15, Bandar Sunway, 47500 Petaling Jaya, Selangor, Malaysia",3.0720837,101.6063455,ROOFTOP,ChIJm21YdodMzDERJW_y1EmlGV4,"establishment,point_of_interest,shopping_mall",47500,Sunway Pyramid,1,OK
408,"Summit USJ, Persiaran Kewajipan, Usj 1, 47600 Subang Jaya, Selangor, Malaysia",3.0602399,101.593544,GEOMETRIC_CENTER,ChIJAWRCs-xMzDERGXu15ptW7D8,"establishment,point_of_interest,shopping_mall",47600,The Summit USJ [227],1,OK
409,"The 19 USJ City Mall, Persiaran Kewajipan, Usj 19, 47620 Subang Jaya, Selangor, Malaysia",3.0325404,101.5888407,GEOMETRIC_CENTER,ChIJ08HolDSzzTERfe2RqBdEDdQ,"establishment,point_of_interest,shopping_mall",47620,Pallazo 19 Mall (formerly known as The 19 USJ City Mall) [228],1,OK
410,"Quayside, 42500 Telok Panglima Garang, Selangor, Malaysia",2.9566395,101.5525031,GEOMETRIC_CENTER,ChIJq9RAz1ezzTERX4EZ4ZVN5VI,"establishment,point_of_interest,shopping_mall",42500,Quayside Mall[229],1,OK
411,"Persiaran Eco Sanctuary, 8/3, Eco Santuari, 42500, Selangor, Malaysia",2.9442869,101.5427859,GEOMETRIC_CENTER,ChIJRR75e1SxzTERbUXBx4_nSVI,"establishment,point_of_interest,shopping_mall",42500,Sanctuary Mall[230],1,OK
412,"Jalan Da Omar, Kampung Gong Pauh, 24000 Kemaman, Terengganu, Malaysia",4.232841,103.421785,GEOMETRIC_CENTER,ChIJ0dYaB-SGyDERLVS6QJvRrb8,"establishment,point_of_interest,shopping_mall",24000,Kemaman Centre Point[231],1,OK
413,,,,,,,,Paya Bunga Square/Sentral[233],0,ZERO_RESULTS
414,"Lot PT4191 Muara Selatan, 20000 Kuala Terengganu, Terengganu, Malaysia",5.3332612,103.1495059,GEOMETRIC_CENTER,ChIJsXelPXW-tzERYxhXmmMxymc,"establishment,point_of_interest,shopping_mall",20000,KTCC Mall[234],1,OK
415,"Jalan Sultan Zainal Abidin, Kampung Surau Pasir, 20000 Kuala Terengganu, Terengganu, Malaysia",5.3371109,103.1447959,GEOMETRIC_CENTER,ChIJYUG829i9tzER8HhywxmbRlE,"establishment,point_of_interest,shopping_mall",20000,Mayang Mall[235] (Opening in Q3 2022),1,OK
